{"type":"FeatureCollection","features":[{"type":"Feature","properties":{"OBJECTID":"22","statut":"ARR","cod_reg":"03","reg":"DIOURBEL","dept":"DIOURBEL","cod_dept":"2","ccod_dept":"032","cav":"AR. N’DINDY","cod_cav":"201","ccod_cav":"032201","arr":"NDINDY","code_arr":"0322010"},"geometry":{"type":"MultiPolygon","coordinates":[[[[-16.322329027999956,15.009831337000037],[-16.32182552699993,15.00798076700005],[-16.322120591999976,15.005946187000063],[-16.321800794999945,15.003847743000051],[-16.32253985699998,15.001772361000064],[-16.319750578999958,15.00101796000007],[-16.318810413999927,15.000869742000077],[-16.313046809999946,14.99817209500003],[-16.30992741299997,14.997503082000037],[-16.308138188999976,14.996889663000047],[-16.304879881999966,14.996311768000055],[-16.302941618999967,14.995653964000041],[-16.300773076999974,14.995359026000074],[-16.29879057499994,14.995072045000029],[-16.297633750999978,14.994747577000055],[-16.29388208399996,14.993789293000077],[-16.291136429999938,14.99339810600003],[-16.28854467399998,14.992499818000056],[-16.28665465499995,14.99212181200005],[-16.28411112499998,14.99131359100005],[-16.280952269999943,14.990237622000052],[-16.27858109799996,14.990259980000076],[-16.276886118999983,14.989835600000049],[-16.27457377899998,14.988799989000029],[-16.272363729999938,14.987908411000035],[-16.270806411999956,14.987022210000077],[-16.268308471999944,14.986041802000045],[-16.265437964999933,14.984954962000074],[-16.26264515899993,14.98442809100004],[-16.260100971999975,14.983628631000045],[-16.257888229999935,14.981959535000044],[-16.255016240999964,14.980601383000021],[-16.252994238999975,14.979889356000058],[-16.25021310699998,14.978304656000034],[-16.248327735999965,14.977094670000042],[-16.247159515999954,14.976079613000024],[-16.24536847099995,14.97509506800003],[-16.24420571099995,14.97430326500006],[-16.24265849899996,14.973249643000031],[-16.245734313999947,14.969497518000026],[-16.245750834999967,14.968657275000055],[-16.245156556999973,14.965284248000046],[-16.244349688999932,14.96070437700007],[-16.24225734099997,14.953865531000076],[-16.238789561999965,14.953531743000042],[-16.238018933999967,14.953457559000071],[-16.23796019699995,14.953451905000065],[-16.23506163299993,14.955294370000047],[-16.23506159799996,14.955294392000042],[-16.23108764099993,14.95752649900004],[-16.230771897999944,14.955964378000033],[-16.229416018999927,14.954615766000074],[-16.227482425999938,14.953044264000027],[-16.22619121899993,14.95292196500003],[-16.225314873999935,14.95283895700004],[-16.223657713999955,14.952459146000024],[-16.222004826999978,14.95214100800007],[-16.220641950999948,14.95187867900006],[-16.22003822199997,14.951972430000069],[-16.220041381999977,14.951909373000035],[-16.220039893999967,14.95190946200006],[-16.219140110999945,14.951970585000026],[-16.218508523999958,14.952013496000063],[-16.218121673999974,14.952039780000064],[-16.21810774399995,14.95203906300003],[-16.218098044999977,14.95204138400004],[-16.215876090999927,14.952573320000056],[-16.215641112999947,14.952655183000047],[-16.215464615999963,14.952682587000027],[-16.215336690999948,14.952702449000071],[-16.21234704699998,14.953459578000036],[-16.21091472599994,14.953708066000047],[-16.21052052899995,14.953776452000056],[-16.209585265999976,14.953938700000037],[-16.209007421999956,14.954038942000068],[-16.208398547999934,14.954144565000036],[-16.207243498999958,14.954344930000047],[-16.20681088999993,14.95441997200004],[-16.204980957999965,14.955219956000064],[-16.203629460999935,14.955810772000063],[-16.20140037599998,14.956247369000039],[-16.199816716999976,14.956791601000077],[-16.199005746999944,14.957070290000047],[-16.19800194499993,14.957415241000035],[-16.19797495399996,14.95742451600006],[-16.197974431999967,14.957424795000065],[-16.197899182999947,14.957450553000058],[-16.197832966999954,14.957473926000034],[-16.197698668999976,14.957520567000074],[-16.197477223999954,14.957597475000057],[-16.197349172999964,14.957641946000024],[-16.19706388399993,14.957741025000075],[-16.196988147999946,14.957767328000045],[-16.196858262999967,14.95781243600004],[-16.196790564999958,14.957835947000035],[-16.196773210999936,14.957842033000077],[-16.19664587699998,14.95788619600006],[-16.19661714399996,14.957896174000041],[-16.196604373999946,14.957900318000043],[-16.196551761999956,14.957918882000058],[-16.196526823999932,14.95792754200005],[-16.19631047499996,14.95800267800007],[-16.19600360499993,14.958115578000047],[-16.195036165999966,14.958471503000055],[-16.194484774999978,14.958674360000032],[-16.194188648999955,14.958783304000065],[-16.19402628599994,14.958843038000055],[-16.193486362999977,14.959041672000069],[-16.193226465999942,14.959137286000043],[-16.19253380799995,14.959384152000041],[-16.19136732299995,14.95979823700003],[-16.19068708599997,14.960039707000021],[-16.190345846999946,14.960160840000071],[-16.189470897999968,14.960471424000048],[-16.188851994999936,14.960691116000078],[-16.188822567999978,14.960701562000054],[-16.188143930999956,14.960942455000065],[-16.18798159599993,14.96100007800004],[-16.18782879899993,14.96104484600005],[-16.18763171599994,14.961102590000053],[-16.187559181999973,14.961123841000074],[-16.18754845199993,14.961126985000021],[-16.186942716999965,14.961304459000075],[-16.186357637999947,14.961475879000034],[-16.186193985999978,14.961523827000065],[-16.185655620999967,14.961681559000056],[-16.185242202999973,14.961802682000041],[-16.18487634099995,14.961909871000046],[-16.18404273699997,14.962154095000074],[-16.18352674399995,14.962206880000053],[-16.18285378799993,14.962275719000047],[-16.18263220999995,14.962298384000064],[-16.181904002999943,14.96237287200006],[-16.181637959999932,14.96240008500007],[-16.181100810999965,14.962455028000022],[-16.180575076999958,14.962508802000059],[-16.18015738799994,14.962551523000059],[-16.179672823999965,14.962601084000028],[-16.17899174599995,14.962670742000057],[-16.178459267999926,14.962725202000058],[-16.178120772999932,14.96275982000003],[-16.177676129999952,14.962805294000077],[-16.17731367899995,14.962842361000071],[-16.177110348999975,14.962863155000036],[-16.177040184999953,14.962870330000044],[-16.176341229999935,14.963801146000037],[-16.17242128099997,14.964589810000064],[-16.17021805099995,14.964381549000052],[-16.16383717499997,14.963483807000046],[-16.160531651999975,14.962632835000022],[-16.152155405999963,14.963100137000026],[-16.14856423599997,14.962566818000028],[-16.146962592999955,14.962131928000076],[-16.142236819999937,14.96172172200005],[-16.139546150999934,14.96123798800005],[-16.137486560999946,14.960943058000055],[-16.136801049999974,14.960844889000043],[-16.134485904999963,14.96087448700007],[-16.12693416299993,14.95932607800006],[-16.12126670599997,14.957902449000073],[-16.108134158999974,14.959848884000053],[-16.103867529999945,14.961278051000022],[-16.09966968899994,14.962002561000077],[-16.093657264999933,14.962031449000051],[-16.087933874999976,14.961917952000022],[-16.08249327799996,14.960719916000073],[-16.08329752399993,14.958977269000059],[-16.085673176999933,14.947054827000045],[-16.085695768999926,14.936865650000072],[-16.08620553299994,14.935838309000076],[-16.089232703999926,14.92973736600004],[-16.09061665699994,14.923823502000062],[-16.089076168999952,14.921415918000037],[-16.090498133999972,14.919943427000021],[-16.090964204999977,14.919460788000038],[-16.092476800999975,14.917894405000027],[-16.09570382499993,14.913975562000076],[-16.096669489999954,14.91153631900005],[-16.09679808599998,14.911211484000034],[-16.097160990999953,14.910294780000072],[-16.09832907699996,14.90782084400007],[-16.098468793999928,14.907047145000035],[-16.098522487999958,14.907034556000042],[-16.098638679999965,14.907008548000022],[-16.098692356999948,14.90698425200003],[-16.098716974999945,14.90696433900007],[-16.098716852999928,14.906940302000066],[-16.098671663999937,14.90691789500005],[-16.09858289699997,14.906904182000062],[-16.09850724499995,14.906896061000054],[-16.098499867999976,14.906874887000072],[-16.098504092999974,14.906848001000071],[-16.098664821999932,14.906715732000066],[-16.09877493999994,14.906638850000036],[-16.09883734799996,14.906615927000075],[-16.098859050999977,14.906594613000038],[-16.098883631999968,14.90656763100003],[-16.09888356099998,14.906553491000068],[-16.098860231999936,14.906540878000044],[-16.098833979999938,14.90652545000006],[-16.098835334999933,14.906505648000064],[-16.098826772999928,14.906251176000069],[-16.09884258699998,14.906215751000047],[-16.098878808999928,14.90619012600007],[-16.098903332999953,14.906151832000035],[-16.099855797999965,14.903372942000033],[-16.099963740999954,14.903058006000037],[-16.101179361999982,14.89951123000003],[-16.10350207999994,14.891635037000071],[-16.10140428099993,14.891024064000021],[-16.09854702499996,14.890191866000066],[-16.083964433999938,14.887329730000033],[-16.080546838999965,14.886658810000029],[-16.07727719899998,14.886047966000035],[-16.06665828299998,14.88406376100005],[-16.066760943999952,14.884043725000026],[-16.066875590999928,14.884021350000069],[-16.06753438499993,14.883892776000039],[-16.067818682999928,14.88383729000003],[-16.068263402999946,14.883750493000036],[-16.068693923999945,14.883666467000069],[-16.06894891899998,14.883616699000072],[-16.06934898399993,14.883538616000067],[-16.06959356699997,14.883490879000021],[-16.069883337999954,14.883434323000074],[-16.07027471899994,14.88335793300007],[-16.070519094999952,14.883310235000067],[-16.07098214699994,14.88321985500005],[-16.07140321999998,14.883137668000074],[-16.071626997999942,14.88309398900003],[-16.07214698599995,14.882992494000064],[-16.07258694899997,14.88290661800005],[-16.07270781999995,14.88288302500007],[-16.07296641299996,14.882832550000046],[-16.07335075499998,14.88275752900006],[-16.073617661999947,14.882705430000044],[-16.073979881999946,14.882634726000049],[-16.074367844999927,14.882558995000068],[-16.07459806099996,14.882514057000037],[-16.074926636999976,14.882449918000077],[-16.075328014999968,14.882371568000053],[-16.075654285999974,14.882307879000052],[-16.076269602999957,14.882187765000026],[-16.076681967999946,14.882107267000038],[-16.077560587999926,14.881935750000025],[-16.07795101499994,14.881859532000021],[-16.078387761999977,14.88177427100004],[-16.078894676999937,14.881675311000038],[-16.07940407999996,14.88157586400007],[-16.079880559999935,14.881482844000061],[-16.08019435799997,14.88142158200003],[-16.080719830999954,14.881318995000072],[-16.08112062699996,14.881240748000039],[-16.08173699899993,14.881120413000076],[-16.08209117399997,14.880870060000063],[-16.08228304399995,14.880734434000033],[-16.08264036399993,14.880481856000074],[-16.08303415499995,14.880203498000071],[-16.083267172999967,14.880038783000032],[-16.083865930999934,14.879615537000063],[-16.084359448999976,14.879266679000068],[-16.084536877999938,14.879141258000061],[-16.085505910999927,14.878456262000043],[-16.085732544999928,14.878296055000021],[-16.086307889999944,14.877889346000075],[-16.086663468999973,14.87763798800006],[-16.086788032999948,14.877549933000068],[-16.086802141999954,14.877538972000025],[-16.086803547999978,14.877538965000042],[-16.08961458799996,14.877525632000072],[-16.089615374999937,14.877525628000058],[-16.08963917999995,14.877525515000059],[-16.089741226999934,14.877505487000064],[-16.090309254999966,14.877394004000053],[-16.090818188999947,14.877294117000076],[-16.09129474399998,14.877200585000026],[-16.091700861999982,14.877120877000038],[-16.092415208999967,14.876980669000034],[-16.092965280999977,14.87687270300006],[-16.093323161999933,14.876802460000022],[-16.093829279999966,14.87670311900007],[-16.094169651999948,14.876636310000038],[-16.094392107999965,14.876592646000063],[-16.09506507599997,14.876460552000026],[-16.095627901999933,14.876350076000051],[-16.095812531999968,14.876313835000076],[-16.096319559999927,14.876214310000023],[-16.09691288099998,14.876097844000071],[-16.097425374999943,14.875997244000075],[-16.09807850599998,14.87586903500005],[-16.098687896999934,14.875749410000026],[-16.099134789999937,14.875661683000033],[-16.099914525999964,14.87524417800006],[-16.10005559299998,14.875168644000041],[-16.100685692999946,14.874831258000029],[-16.101568446999977,14.87435858400005],[-16.10173379099996,14.874270049000074],[-16.10260004299994,14.87380620500005],[-16.103689672999963,14.873222742000053],[-16.104605850999974,14.872732153000072],[-16.104852818999973,14.872599906000062],[-16.105640388999973,14.871989456000051],[-16.106180803999962,14.871570574000032],[-16.107460552999953,14.870578612000031],[-16.10821329199996,14.869995140000071],[-16.108418255999936,14.86983626600005],[-16.110293768999952,14.868381904000046],[-16.11055405099995,14.868180710000047],[-16.111986859999945,14.867070048000073],[-16.112742245999982,14.86648449200004],[-16.11422011899998,14.865338867000048],[-16.11522588699995,14.86455920000003],[-16.11559327799995,14.864274396000042],[-16.116072577999944,14.863771015000054],[-16.11663910799996,14.863170738000065],[-16.117774607999934,14.861967583000023],[-16.118232708999926,14.861482182000032],[-16.11838242799996,14.861323541000047],[-16.11855178199994,14.860243432000061],[-16.11890168399998,14.858011797000074],[-16.119178861999956,14.856243953000046],[-16.11942163899994,14.854695504000063],[-16.119247042999973,14.853004572000032],[-16.119117143999972,14.85175029900006],[-16.119048584999973,14.851082501000064],[-16.11876697599996,14.848355033000075],[-16.118624688999944,14.846976905000076],[-16.11844377799997,14.845224637000058],[-16.118287082999927,14.843706904000044],[-16.118240139999955,14.843252211000049],[-16.118112013999962,14.842011151000065],[-16.118006427999944,14.840988414000037],[-16.11788729799997,14.839834476000021],[-16.117784507999943,14.838838787000043],[-16.117683773999943,14.837863006000077],[-16.11751548799998,14.83623285300007],[-16.11747786099994,14.83586835500006],[-16.11738795599996,14.834997434000059],[-16.11737311899998,14.834853710000061],[-16.117172791999963,14.832913094000048],[-16.11711295799995,14.832333457000061],[-16.117036560999964,14.831593370000064],[-16.11683408899995,14.83046098400007],[-16.116570257999967,14.828985418000059],[-16.11654559899995,14.828847501000041],[-16.116471694999973,14.82843415700006],[-16.11637798099997,14.827910024000062],[-16.116323330999933,14.827604361000056],[-16.11604870399998,14.827114091000055],[-16.11573947399995,14.826562041000045],[-16.115515414999948,14.826162039000053],[-16.11520655299995,14.825610641000026],[-16.11513772099994,14.825487757000076],[-16.115018557999974,14.824831197000037],[-16.115001408999944,14.82473671300005],[-16.114816298999926,14.823716787000023],[-16.11477588599996,14.823494124000035],[-16.11464088599996,14.822750289000055],[-16.114619644999948,14.822633255000028],[-16.114064293999945,14.821789100000046],[-16.11382668599998,14.821427923000044],[-16.113363582999966,14.820723981000071],[-16.11310276499995,14.820327520000035],[-16.11274573399993,14.81978480500004],[-16.112638568999955,14.819621906000066],[-16.112622422999948,14.819615267000074],[-16.112598634999927,14.819605485000068],[-16.11222679399998,14.81945257600006],[-16.111598485999934,14.819194203000052],[-16.111142643999926,14.819006749000039],[-16.11044089199993,14.818718170000068],[-16.109901643999933,14.818496413000048],[-16.10921981799993,14.818216023000048],[-16.10875743899993,14.818025874000057],[-16.10808081899995,14.817747619000045],[-16.107675680999932,14.817581007000058],[-16.10746465099993,14.81749422200005],[-16.107008795999946,14.815682025000058],[-16.106339506999973,14.813021283000069],[-16.10572591099998,14.810581877000061],[-16.105509075999976,14.809719814000061],[-16.105210159999956,14.808531413000026],[-16.10860346499993,14.807823531000054],[-16.112334174999944,14.806609645000037],[-16.115919537999957,14.80582693100007],[-16.118321656999967,14.804428039000072],[-16.120493719999956,14.802640617000066],[-16.121505295999953,14.802648200000021],[-16.124821165999947,14.802406045000055],[-16.127848944999982,14.802156212000057],[-16.130496242999982,14.801999735000038],[-16.13244418499994,14.805187033000038],[-16.134989644999962,14.806819967000024],[-16.138655509999978,14.807076123000058],[-16.14372214699995,14.805679817000055],[-16.147655439999937,14.803192084000045],[-16.147254420999957,14.799339456000041],[-16.150189673999932,14.799180192000051],[-16.152748690999942,14.79815495400004],[-16.15511687399993,14.797944225000037],[-16.157343240999978,14.797273155000028],[-16.16108585799998,14.796937945000025],[-16.164965653999957,14.796195194000063],[-16.16847929599993,14.794749134000028],[-16.169687946999943,14.794193842000027],[-16.17132467299996,14.79344201500004],[-16.173691314999928,14.79295991600003],[-16.17573893699995,14.791738162000058],[-16.178159541999946,14.790931444000023],[-16.180679373999965,14.789578420000055],[-16.18076776399994,14.789516783000067],[-16.18186590499994,14.785350471000072],[-16.187592348999942,14.779471410000042],[-16.19403146899998,14.777055670000038],[-16.19798296099998,14.775958908000064],[-16.201960958999962,14.775220705000038],[-16.204678771999966,14.773293141000067],[-16.20606832699997,14.77120506700004],[-16.207726470999944,14.769295541000076],[-16.211510750999935,14.768617413000072],[-16.21514790499998,14.768502635000061],[-16.218097107999938,14.76843926500004],[-16.219940658999974,14.768453451000028],[-16.22153508799994,14.768608444000051],[-16.22183811499997,14.768310358000065],[-16.22207089699998,14.76808137200004],[-16.222622413999943,14.766138278000028],[-16.222786887999973,14.763089955000055],[-16.225197978999972,14.762335934000077],[-16.227666056999965,14.761807576000024],[-16.22965848599995,14.760947259000034],[-16.232025418999967,14.760609225000053],[-16.233816054999977,14.760210968000024],[-16.234394850999934,14.759068890000037],[-16.23488376599994,14.756815423000035],[-16.23682946899993,14.75591914000006],[-16.23900973399998,14.755437405000066],[-16.24260986799993,14.754866666000055],[-16.247049781999976,14.754499252000073],[-16.250502635999965,14.754019582000069],[-16.253715563999947,14.753821388000063],[-16.257452137999962,14.754225949000045],[-16.25846705899994,14.754175520000047],[-16.260759831999962,14.752439184000025],[-16.269249841999965,14.746009208000032],[-16.272315483999932,14.743960083000047],[-16.27463556899994,14.742235916000027],[-16.276799380999933,14.740106136000065],[-16.27891589999996,14.737576920000038],[-16.279945317999932,14.735000157000059],[-16.280294380999976,14.731649853000022],[-16.28412190399996,14.721017851000056],[-16.285896675999936,14.721035561000065],[-16.288113152999927,14.721860337000066],[-16.291448457999934,14.724891166000077],[-16.292194111999947,14.726322019000065],[-16.292572932999974,14.728053877000036],[-16.29375640899997,14.730797704000054],[-16.295932076999975,14.735090563000028],[-16.297232141999928,14.736757456000078],[-16.298290303999977,14.738894229000039],[-16.301166552999973,14.739926641000068],[-16.303768068999943,14.741379539000036],[-16.304342132999977,14.741854601000057],[-16.306291081999973,14.742591497000035],[-16.308883522999963,14.742748590000076],[-16.311429793999935,14.742951112000071],[-16.314621554999974,14.745464011000024],[-16.317666077999945,14.748194642000044],[-16.320431527999972,14.750700838000057],[-16.32334173499993,14.752701095000077],[-16.325764944999946,14.755570748000025],[-16.328775786999927,14.75729804100007],[-16.332311954999966,14.758335278000061],[-16.33520293199996,14.761717357000066],[-16.33721934199997,14.763341801000024],[-16.340078882999933,14.766118359000075],[-16.342702843999973,14.768480440000076],[-16.345094423999967,14.770527467000022],[-16.347530733999974,14.772429577000025],[-16.348967396999967,14.774916010000027],[-16.349606869999946,14.777678270000024],[-16.351325472999974,14.780678269000077],[-16.352057336999962,14.783349584000064],[-16.35224838499994,14.78438458200003],[-16.352729318999934,14.78698956900007],[-16.35317075499995,14.790620734000072],[-16.35343329999995,14.79250838300004],[-16.35416523999993,14.795179683000072],[-16.35425300999998,14.797908393000057],[-16.355994014999965,14.800410796000051],[-16.357103163999966,14.801517146000037],[-16.358598850999954,14.803009030000055],[-16.362035248999973,14.805792393000047],[-16.363373576999948,14.806531181000025],[-16.367230654999958,14.808660302000021],[-16.36806093599995,14.815286215000071],[-16.36923565099994,14.824659889000031],[-16.363045923999948,14.825557609000043],[-16.35781160399995,14.82540438500007],[-16.358080275999953,14.827093120000029],[-16.358446295999954,14.82902533500004],[-16.358705141999963,14.831789783000033],[-16.359665466999957,14.835282254000049],[-16.361844730999962,14.836110240000039],[-16.363904031999937,14.836892621000061],[-16.366380507999963,14.841091310000024],[-16.366879686999937,14.843939829000021],[-16.365535141999942,14.845820437000043],[-16.36565352599996,14.847725834000073],[-16.36577545399996,14.849688181000033],[-16.366777188999947,14.856498282000075],[-16.367317451999952,14.86029770500005],[-16.367649546999928,14.866179054000042],[-16.36826085799993,14.876613356000064],[-16.368661224999983,14.879813059000071],[-16.368750232999957,14.880524354000045],[-16.36914435099993,14.884065316000033],[-16.369712462999928,14.888662805000024],[-16.370393320999938,14.891976070000055],[-16.370879590999948,14.895380884000076],[-16.371519827999975,14.89814300200004],[-16.371521082999948,14.898195335000025],[-16.371658752999963,14.903936197000064],[-16.371757272999957,14.907750082000064],[-16.37134479699995,14.911603183000068],[-16.37339988499997,14.914655094000068],[-16.371771629999955,14.917349450000074],[-16.371507606999955,14.91969214200003],[-16.37115175599996,14.922351750000075],[-16.370800851999945,14.925517513000045],[-16.36996391399998,14.928407107000055],[-16.369703646999938,14.93134635000007],[-16.369448034999948,14.933553404000065],[-16.369197591999978,14.935109617000023],[-16.36879760399995,14.937146016000042],[-16.368657221999968,14.937860717000035],[-16.368609160999938,14.938353092000057],[-16.36834293399994,14.941080492000026],[-16.367748482999957,14.944103085000052],[-16.367513362999944,14.945546347000061],[-16.367512096999974,14.945554120000054],[-16.370564472999945,14.948028468000075],[-16.370589450999944,14.951962950000052],[-16.370607978999942,14.954880562000028],[-16.370630200999926,14.958379237000031],[-16.37021638699997,14.961493039000061],[-16.369792029999928,14.964686107000034],[-16.36938816399993,14.967724930000031],[-16.368758260999982,14.972464416000037],[-16.366808813999967,14.974856354000053],[-16.364604292999957,14.977561184000024],[-16.363547180999944,14.978858175000028],[-16.362134707999928,14.980591136000044],[-16.361390211999947,14.981504543000028],[-16.361110803999964,14.982604934000051],[-16.360334036999973,14.984760858000072],[-16.36036507999995,14.98673117800007],[-16.360954438999954,14.98876143700005],[-16.361979988999963,14.990653502000043],[-16.36315349299997,14.992273504000025],[-16.364411549999943,14.99416416300005],[-16.365762618999952,14.996054255000047],[-16.36683474499995,14.997946011000067],[-16.370999551999944,15.00369567000007],[-16.362630665999973,15.011833543000023],[-16.361035287999982,15.013792717000058],[-16.35962033499993,15.015530288000036],[-16.356671193999944,15.01467997800006],[-16.35564814099996,15.014383667000061],[-16.35116108699998,15.013678198000036],[-16.34846724299996,15.012699886000064],[-16.345094478999954,15.011515630000076],[-16.34271659999996,15.010691068000028],[-16.341045967999946,15.010013504000028],[-16.340057787999967,15.00961271600005],[-16.338671450999982,15.01234800800006],[-16.335851889999958,15.014775305000057],[-16.333608392999963,15.015292565000038],[-16.331180143999973,15.01578356500005],[-16.328636993999964,15.01523548700004],[-16.327227327999935,15.01438016700007],[-16.32561134599996,15.01339964500005],[-16.32432866399995,15.012765622000074],[-16.32369851599998,15.012454140000045],[-16.32321126499994,15.011395058000062],[-16.322329027999956,15.009831337000037]]]]}},{"type":"Feature","properties":{"OBJECTID":"23","statut":"ARR","cod_reg":"03","reg":"DIOURBEL","dept":"DIOURBEL","cod_dept":"2","ccod_dept":"032","cav":"AR. N’DOULO","cod_cav":"202","ccod_cav":"032202","arr":"NDOULO","code_arr":"0322020"},"geometry":{"type":"MultiPolygon","coordinates":[[[[-16.087393361999943,14.804241196000078],[-16.086642258999973,14.801518055000031],[-16.085642722999978,14.798269878000042],[-16.087323812999955,14.79704350000003],[-16.089401273999954,14.795527930000048],[-16.090596467999944,14.794638164000048],[-16.09143082999998,14.793559796000068],[-16.09258159099994,14.792072476000044],[-16.093266824999944,14.791186823000032],[-16.09533979799994,14.789282937000053],[-16.09626728199993,14.788153350000073],[-16.09554959899998,14.787200031000054],[-16.09537404599996,14.786507235000045],[-16.096503256999938,14.786190933000057],[-16.098380650999957,14.787057711000045],[-16.098682636999968,14.786462800000038],[-16.098863002999963,14.78615578800003],[-16.099565261999942,14.785576915000036],[-16.09925474099998,14.783182810000028],[-16.098531969999954,14.77986859200007],[-16.096748570999978,14.775261064000063],[-16.092218634999938,14.760143941000024],[-16.08952105399993,14.76019801800004],[-16.086584553999955,14.758495355000036],[-16.08649423199995,14.75715695200006],[-16.08649123999993,14.757112619000054],[-16.08621304099995,14.748792969000021],[-16.08918125799994,14.743805740000028],[-16.091170530999932,14.740463206000072],[-16.08749655099996,14.736367315000052],[-16.079962467999962,14.735588324000048],[-16.076260272999946,14.734229905000063],[-16.076616571999978,14.728064036000035],[-16.076707124999928,14.726484994000032],[-16.077817954999944,14.712682302000076],[-16.07447768399993,14.690710273000036],[-16.071875846999944,14.69095942000007],[-16.06820470499997,14.678032982000047],[-16.06740649799997,14.675222181000038],[-16.069204981999974,14.663748713000075],[-16.069246120999935,14.663710528000024],[-16.069256278999944,14.663674720000074],[-16.069242438999936,14.663661374000071],[-16.069216015999928,14.663657026000067],[-16.069191856999964,14.663645962000032],[-16.069152758999962,14.663631614000053],[-16.069128588999945,14.663618315000065],[-16.069122702999948,14.663588169000036],[-16.06912712099995,14.663552389000074],[-16.069156660999965,14.663489672000026],[-16.069205651999937,14.663413455000068],[-16.06940035499997,14.663323159000072],[-16.069638791999978,14.663256129000047],[-16.069981007999957,14.663285845000075],[-16.07001199499996,14.663284584000053],[-16.07004186699993,14.663290034000056],[-16.07005567899995,14.663297793000027],[-16.070066063999946,14.663308921000066],[-16.07007983799997,14.663308857000061],[-16.070091289999937,14.663303217000077],[-16.07009237799997,14.663290919000076],[-16.070091137999952,14.663271928000029],[-16.070080633999964,14.66323621500004],[-16.070045964999963,14.663188322000053],[-16.069811338999955,14.663069906000032],[-16.069813331999967,14.66305654000007],[-16.069825657999957,14.663052143000073],[-16.069836301999942,14.663054431000035],[-16.069842835999964,14.663058074000048],[-16.069854840999938,14.663058019000061],[-16.069857911999975,14.66305466600005],[-16.069857191999972,14.66304765600006],[-16.069847557999935,14.663041356000065],[-16.06927320799997,14.663074218000077],[-16.069165131999966,14.663067202000036],[-16.069021258999953,14.662998744000049],[-16.068843516999948,14.662948473000029],[-16.068846355999938,14.662897371000042],[-16.06889872299996,14.662874591000048],[-16.068949473999965,14.662836793000054],[-16.069067857999983,14.66274158400006],[-16.069298568999955,14.662575237000055],[-16.07274398499993,14.662573850000058],[-16.07300428999997,14.660582443000067],[-16.071985833999975,14.648773934000076],[-16.071813902999963,14.646780300000046],[-16.069454777999965,14.645095625000067],[-16.064205425999944,14.641773706000038],[-16.057718845999943,14.640093963000027],[-16.05276443699995,14.639714584000046],[-16.05146489499998,14.639203810000026],[-16.050871213999926,14.638345412000035],[-16.051040433999958,14.63673730100004],[-16.050494793999974,14.633582474000036],[-16.051329669999973,14.622026078000033],[-16.051656365999975,14.617503752000061],[-16.053400521999947,14.615403379000043],[-16.054689761999953,14.613850800000023],[-16.05473584999993,14.611861736000037],[-16.054809156999966,14.608698010000069],[-16.05490879599995,14.604397948000042],[-16.05584928299993,14.595591542000022],[-16.055169982999928,14.592996673000073],[-16.05299890999993,14.588945100000046],[-16.05186277599995,14.587610759000029],[-16.047382424999967,14.585430347000056],[-16.04433135499994,14.584248058000071],[-16.040386957999942,14.581108345000075],[-16.037517006999963,14.576624323000033],[-16.036009940999975,14.56945528500006],[-16.036384769999927,14.565578733000052],[-16.037950875999968,14.564375833000042],[-16.04143806299993,14.564360333000025],[-16.044093663999945,14.565066066000043],[-16.045080251999934,14.565970583000023],[-16.04552837899996,14.56726020700006],[-16.04685902199998,14.568211015000031],[-16.04794183499996,14.568684546000043],[-16.049080407999952,14.568635168000071],[-16.04929948499995,14.568625667000049],[-16.04932303499993,14.568624645000057],[-16.04843472999994,14.56724547300007],[-16.04699570599996,14.56520882600006],[-16.045276070999932,14.562893174000067],[-16.043502948999958,14.560668148000047],[-16.04140823199998,14.557522430000063],[-16.039742531999934,14.555425716000059],[-16.039712038999937,14.555381602000068],[-16.041249789999938,14.555187430000046],[-16.043256508999946,14.55500072700005],[-16.045129292999945,14.554826469000034],[-16.04512938199997,14.554826461000061],[-16.047310866999965,14.554601769000044],[-16.049656438999932,14.554350653000029],[-16.055605240999967,14.554323899000053],[-16.057525346999967,14.55408131200005],[-16.05888542899993,14.553909470000065],[-16.059263123999926,14.553866863000053],[-16.060538502999975,14.553709467000033],[-16.06180524399997,14.553555094000046],[-16.062514706999934,14.553500033000034],[-16.06257585999998,14.553493133000075],[-16.06397779699995,14.553418472000033],[-16.06667749099995,14.553274672000043],[-16.06872589799997,14.552665912000066],[-16.069804603999955,14.550831287000051],[-16.071199639999975,14.548361467000063],[-16.07238541199996,14.545855796000069],[-16.074220883999942,14.54364952700007],[-16.074421814999937,14.543259686000056],[-16.07443991899993,14.543261192000045],[-16.075162915999954,14.543321338000055],[-16.07757517699997,14.543165609000027],[-16.08058587499994,14.543929193000054],[-16.089313870999945,14.544747574000041],[-16.091966534999926,14.544409776000066],[-16.09532632899993,14.544554549000054],[-16.098957648999942,14.544711559000064],[-16.10005279199993,14.54485887800007],[-16.100416338999935,14.54339195700004],[-16.106396683999947,14.542846667000049],[-16.110295624999935,14.543438122000055],[-16.110525103999976,14.543472932000043],[-16.117753943999958,14.545375948000071],[-16.11979227599994,14.545705653000027],[-16.122028648999958,14.54606736900007],[-16.12239374899997,14.546126420000064],[-16.12477073399998,14.546510850000061],[-16.124835875999963,14.546502717000067],[-16.12534241299994,14.546439472000031],[-16.129167028999973,14.546619941000074],[-16.130688877999944,14.546229517000029],[-16.130936702999975,14.54644195800006],[-16.13305431799995,14.547315531000038],[-16.133772368999928,14.547597607000057],[-16.13471688599998,14.54784360900004],[-16.13902178899997,14.549473503000058],[-16.139356437999936,14.549593026000025],[-16.140098958999943,14.549850887000048],[-16.14047757299994,14.549978977000023],[-16.140765149999936,14.550076267000065],[-16.14098856299995,14.55015184900003],[-16.141080288999945,14.550189612000054],[-16.141519837999965,14.550370569000052],[-16.14223439799997,14.550664741000048],[-16.142793172999973,14.550894777000053],[-16.143160414999954,14.551080760000048],[-16.143944789999978,14.551477989000034],[-16.14442672299998,14.55172205200006],[-16.145103133999953,14.551864995000074],[-16.145971948999943,14.55204859500003],[-16.14637942199994,14.552244553000037],[-16.14705147199993,14.552567746000022],[-16.147427713999946,14.552742193000029],[-16.14763295599994,14.552821572000028],[-16.148450176999972,14.553140705000033],[-16.14858390699993,14.553192927000055],[-16.148612542999956,14.553204110000024],[-16.148899249999943,14.553301795000039],[-16.14946002299996,14.553492858000027],[-16.14982208699996,14.553648386000077],[-16.15080159599995,14.554055481000034],[-16.151245849999952,14.554240116000074],[-16.15241707699994,14.554689763000056],[-16.153877447999946,14.555183720000059],[-16.155509327999937,14.555676819000041],[-16.156452591999937,14.555672160000029],[-16.15919009199996,14.55440574000005],[-16.160158921999937,14.553894012000058],[-16.160361948999935,14.553786775000049],[-16.160671714999978,14.553623157000061],[-16.161081443999933,14.553319197000064],[-16.16127395899997,14.55372621500004],[-16.161396821999972,14.554436052000028],[-16.161487910999938,14.55498744700003],[-16.161552782999934,14.55533710700007],[-16.16174170599993,14.556483542000024],[-16.161966543999938,14.557324914000048],[-16.16244514699997,14.559115888000065],[-16.163261469999952,14.55943418000004],[-16.164338124999972,14.559853972000042],[-16.165274581999938,14.560219094000047],[-16.166377256999965,14.560703438000075],[-16.167792979999945,14.560472273000073],[-16.169208925999953,14.560752218000061],[-16.17044534699994,14.560516422000035],[-16.17175218099993,14.560034889000065],[-16.17492524599993,14.557586222000054],[-16.17789410299997,14.559126158000026],[-16.181100457999946,14.559941664000064],[-16.182368166999936,14.56029155400006],[-16.185571318999962,14.561175594000076],[-16.186442071999977,14.561516250000068],[-16.18644588099994,14.562960629000031],[-16.186419764999982,14.564680019000036],[-16.186363744999937,14.568368417000045],[-16.18754765999995,14.569331087000023],[-16.189468216999956,14.570252754000023],[-16.193902529999946,14.569193424000048],[-16.196002290999957,14.568691773000069],[-16.198517524999943,14.568090834000031],[-16.201975020999953,14.567264721000072],[-16.204846698999972,14.56940428400003],[-16.20895584599998,14.572465691000048],[-16.216541801999938,14.575996587000077],[-16.21785409299997,14.576154879000057],[-16.219836493999935,14.576319417000036],[-16.22106004799997,14.576420963000032],[-16.225255902999947,14.577365955000062],[-16.225309798999945,14.577399628000023],[-16.23098915999998,14.580947769000034],[-16.23122058699994,14.581217305000052],[-16.23229777599994,14.582471860000055],[-16.23488441199993,14.582260765000058],[-16.238168644999973,14.579315869000027],[-16.24024533599993,14.575380479000046],[-16.24089413699994,14.575533010000072],[-16.243200298999966,14.576144494000062],[-16.245713646999945,14.575986836000027],[-16.248869423999963,14.575788842000065],[-16.25138268099994,14.576156681000043],[-16.25399201099998,14.576538551000056],[-16.257372418999978,14.575961335000045],[-16.261384392999958,14.576364580000075],[-16.26363589899995,14.57730157900005],[-16.266041334999954,14.577559749000045],[-16.268440820999956,14.577863481000065],[-16.268440857999963,14.57786348600007],[-16.26953378899998,14.578001823000022],[-16.272320031999982,14.578303057000028],[-16.27321752699993,14.577810030000023],[-16.27646936499997,14.578524498000036],[-16.279556002999982,14.577449987000023],[-16.283231736999937,14.577484070000025],[-16.28592419299997,14.578108414000042],[-16.29036515599995,14.578265705000035],[-16.295056673999966,14.576137066000058],[-16.298270113999934,14.574678987000027],[-16.300590091999936,14.574611852000032],[-16.303034233999938,14.57514174000005],[-16.304792694999946,14.57535964400006],[-16.306571134999956,14.575580010000067],[-16.306937753999932,14.575625435000063],[-16.307945441999948,14.575650463000045],[-16.310867504999976,14.575723013000072],[-16.31504849199996,14.576775791000046],[-16.317505215999972,14.576941331000057],[-16.31959928699996,14.578065571000025],[-16.323172496999973,14.580138095000052],[-16.324782501999948,14.582687786000065],[-16.32913592699998,14.583209904000057],[-16.33083312599996,14.583413430000064],[-16.33342159199998,14.583723812000073],[-16.336717715999953,14.584119006000037],[-16.340573552999956,14.584523297000032],[-16.341739125999936,14.585020198000052],[-16.343568601999948,14.587036264000062],[-16.345458376999943,14.589118721000034],[-16.34667866099994,14.59046339400004],[-16.348295906999965,14.592245456000057],[-16.35223899799996,14.59273539700007],[-16.35476266099994,14.593048933000034],[-16.355198788999928,14.593103115000076],[-16.35716943799997,14.594072247000042],[-16.358069757999942,14.59483171000005],[-16.35808067599993,14.594840919000035],[-16.358091386999945,14.596507789000043],[-16.35723384599993,14.597569027000077],[-16.357708787999968,14.598730508000074],[-16.35855670899997,14.599863253000024],[-16.359440221999932,14.601043531000073],[-16.360645155999975,14.604245459000026],[-16.36183559899996,14.604543375000048],[-16.362552816999937,14.604722859000049],[-16.364108837999936,14.605112246000033],[-16.365156729999967,14.605374469000026],[-16.36647008099993,14.605930412000077],[-16.36785972599995,14.606518637000022],[-16.36908647499996,14.60703790100007],[-16.370153968999944,14.607489747000045],[-16.370928617999937,14.607628720000037],[-16.370977693999976,14.61089363800005],[-16.370791297999972,14.612521050000055],[-16.369721917999982,14.614344982000034],[-16.36776716299994,14.615982776000067],[-16.36333008699995,14.621555148000027],[-16.360807267999974,14.624877432000062],[-16.360260136999955,14.625608713000076],[-16.355682867999974,14.628544077000072],[-16.35443803299995,14.633841148000045],[-16.352805498999942,14.635964927000032],[-16.352714404999972,14.641866969000034],[-16.34786159099997,14.649302417000058],[-16.34416245699998,14.651535334000073],[-16.34372478299997,14.65227449300005],[-16.34358928599994,14.654332728000043],[-16.343348632999948,14.657988287000023],[-16.343331226999965,14.658132856000066],[-16.34331807999996,14.65824204200004],[-16.343169616999944,14.659316385000068],[-16.34288698399996,14.661432369000067],[-16.342870861999927,14.661545344000046],[-16.342870855999934,14.661545390000072],[-16.342840271999933,14.661759698000026],[-16.341816793999953,14.664459324000063],[-16.340661927999975,14.666933722000067],[-16.339014504999966,14.66942731000006],[-16.338797387999932,14.669655254000077],[-16.338259264999976,14.670093594000036],[-16.328864623999948,14.668140074000064],[-16.32804171199996,14.667801534000034],[-16.32564880999996,14.666817087000027],[-16.31998224299997,14.665562],[-16.310804338999958,14.684958430000052],[-16.30358279199993,14.683345088000067],[-16.302431802999934,14.691239943000028],[-16.30174207699997,14.692613466000068],[-16.298678060999976,14.698714945000063],[-16.29772765699994,14.700047652000023],[-16.29713408999993,14.704226137000035],[-16.29017821399998,14.707597090000036],[-16.290558155999975,14.710173205000046],[-16.29076513299998,14.71194190400007],[-16.289646346999973,14.713909319000038],[-16.285802083999954,14.71885595200007],[-16.28412190399996,14.721017851000056],[-16.280294380999976,14.731649853000022],[-16.279945317999932,14.735000157000059],[-16.27891589999996,14.737576920000038],[-16.276799380999933,14.740106136000065],[-16.27463556899994,14.742235916000027],[-16.272315483999932,14.743960083000047],[-16.269249841999965,14.746009208000032],[-16.260759831999962,14.752439184000025],[-16.25846705899994,14.754175520000047],[-16.257452137999962,14.754225949000045],[-16.253715563999947,14.753821388000063],[-16.250502635999965,14.754019582000069],[-16.247049781999976,14.754499252000073],[-16.24260986799993,14.754866666000055],[-16.23900973399998,14.755437405000066],[-16.23682946899993,14.75591914000006],[-16.23488376599994,14.756815423000035],[-16.234394850999934,14.759068890000037],[-16.233816054999977,14.760210968000024],[-16.232025418999967,14.760609225000053],[-16.22965848599995,14.760947259000034],[-16.227666056999965,14.761807576000024],[-16.225197978999972,14.762335934000077],[-16.222786887999973,14.763089955000055],[-16.222622413999943,14.766138278000028],[-16.22207089699998,14.76808137200004],[-16.22183811499997,14.768310358000065],[-16.22153508799994,14.768608444000051],[-16.219940658999974,14.768453451000028],[-16.218097107999938,14.76843926500004],[-16.21514790499998,14.768502635000061],[-16.211510750999935,14.768617413000072],[-16.207726470999944,14.769295541000076],[-16.20606832699997,14.77120506700004],[-16.204678771999966,14.773293141000067],[-16.201960958999962,14.775220705000038],[-16.19798296099998,14.775958908000064],[-16.19403146899998,14.777055670000038],[-16.187592348999942,14.779471410000042],[-16.18186590499994,14.785350471000072],[-16.18076776399994,14.789516783000067],[-16.180679373999965,14.789578420000055],[-16.178159541999946,14.790931444000023],[-16.17573893699995,14.791738162000058],[-16.173691314999928,14.79295991600003],[-16.17132467299996,14.79344201500004],[-16.169687946999943,14.794193842000027],[-16.16847929599993,14.794749134000028],[-16.164965653999957,14.796195194000063],[-16.16108585799998,14.796937945000025],[-16.157343240999978,14.797273155000028],[-16.15511687399993,14.797944225000037],[-16.152748690999942,14.79815495400004],[-16.150189673999932,14.799180192000051],[-16.147254420999957,14.799339456000041],[-16.147655439999937,14.803192084000045],[-16.14372214699995,14.805679817000055],[-16.138655509999978,14.807076123000058],[-16.134989644999962,14.806819967000024],[-16.13244418499994,14.805187033000038],[-16.130496242999982,14.801999735000038],[-16.127848944999982,14.802156212000057],[-16.124821165999947,14.802406045000055],[-16.121505295999953,14.802648200000021],[-16.120493719999956,14.802640617000066],[-16.118321656999967,14.804428039000072],[-16.115919537999957,14.80582693100007],[-16.112334174999944,14.806609645000037],[-16.10860346499993,14.807823531000054],[-16.105210159999956,14.808531413000026],[-16.104072188999965,14.808494895000024],[-16.098132705999944,14.808304201000055],[-16.092126192999956,14.806754148000039],[-16.087393361999943,14.804241196000078]]]]}}]}