{"type":"FeatureCollection","name":"ecoles-bbox","xy_coordinate_resolution":1e-06,"bbox":[-16.351724,14.550677,-16.066205,14.99452],"features":[{"type":"Feature","properties":{"name":"École sans nom","fclass":"school","osm_type":"way","osm_id":324775067,"operator":null,"religion":null,"source":"OpenStreetMap"},"bbox":[-16.202635,14.896308,-16.202635,14.896308],"geometry":{"type":"Point","coordinates":[-16.202635,14.896308]}},{"type":"Feature","properties":{"name":"École sans nom","fclass":"school","osm_type":"way","osm_id":324775069,"operator":null,"religion":null,"source":"OpenStreetMap"},"bbox":[-16.201665,14.89685,-16.201665,14.89685],"geometry":{"type":"Point","coordinates":[-16.201665,14.89685]}},{"type":"Feature","properties":{"name":"École sans nom","fclass":"school","osm_type":"way","osm_id":363326164,"operator":null,"religion":null,"source":"OpenStreetMap"},"bbox":[-16.148561,14.594189,-16.148561,14.594189],"geometry":{"type":"Point","coordinates":[-16.148561,14.594189]}},{"type":"Feature","properties":{"name":"École sans nom","fclass":"school","osm_type":"way","osm_id":363327586,"operator":null,"religion":null,"source":"OpenStreetMap"},"bbox":[-16.152638,14.594122,-16.152638,14.594122],"geometry":{"type":"Point","coordinates":[-16.152638,14.594122]}},{"type":"Feature","properties":{"name":"École sans nom","fclass":"school","osm_type":"way","osm_id":363330840,"operator":null,"religion":null,"source":"OpenStreetMap"},"bbox":[-16.193078,14.611024,-16.193078,14.611024],"geometry":{"type":"Point","coordinates":[-16.193078,14.611024]}},{"type":"Feature","properties":{"name":"École sans nom","fclass":"school","osm_type":"way","osm_id":363345907,"operator":null,"religion":null,"source":"OpenStreetMap"},"bbox":[-16.223661,14.639177,-16.223661,14.639177],"geometry":{"type":"Point","coordinates":[-16.223661,14.639177]}},{"type":"Feature","properties":{"name":"Lycée Ndayane","fclass":"school","osm_type":"way","osm_id":363345908,"operator":null,"religion":null,"source":"OpenStreetMap"},"bbox":[-16.227773,14.638591,-16.227773,14.638591],"geometry":{"type":"Point","coordinates":[-16.227773,14.638591]}},{"type":"Feature","properties":{"name":"École sans nom","fclass":"school","osm_type":"way","osm_id":363345910,"operator":null,"religion":null,"source":"OpenStreetMap"},"bbox":[-16.225223,14.638461,-16.225223,14.638461],"geometry":{"type":"Point","coordinates":[-16.225223,14.638461]}},{"type":"Feature","properties":{"name":"École sans nom","fclass":"school","osm_type":"way","osm_id":363346966,"operator":null,"religion":null,"source":"OpenStreetMap"},"bbox":[-16.235901,14.630568,-16.235901,14.630568],"geometry":{"type":"Point","coordinates":[-16.235901,14.630568]}},{"type":"Feature","properties":{"name":"École sans nom","fclass":"school","osm_type":"way","osm_id":368770187,"operator":null,"religion":null,"source":"OpenStreetMap"},"bbox":[-16.337678,14.99452,-16.337678,14.99452],"geometry":{"type":"Point","coordinates":[-16.337678,14.99452]}},{"type":"Feature","properties":{"name":"École sans nom","fclass":"school","osm_type":"way","osm_id":388406999,"operator":null,"religion":null,"source":"OpenStreetMap"},"bbox":[-16.11175,14.735581,-16.11175,14.735581],"geometry":{"type":"Point","coordinates":[-16.11175,14.735581]}},{"type":"Feature","properties":{"name":"École sans nom","fclass":"school","osm_type":"way","osm_id":464132410,"operator":null,"religion":null,"source":"OpenStreetMap"},"bbox":[-16.10788,14.550677,-16.10788,14.550677],"geometry":{"type":"Point","coordinates":[-16.10788,14.550677]}},{"type":"Feature","properties":{"name":"École sans nom","fclass":"school","osm_type":"way","osm_id":464133428,"operator":null,"religion":null,"source":"OpenStreetMap"},"bbox":[-16.129644,14.561336,-16.129644,14.561336],"geometry":{"type":"Point","coordinates":[-16.129644,14.561336]}},{"type":"Feature","properties":{"name":"École sans nom","fclass":"school","osm_type":"way","osm_id":464136998,"operator":null,"religion":null,"source":"OpenStreetMap"},"bbox":[-16.171666,14.622277,-16.171666,14.622277],"geometry":{"type":"Point","coordinates":[-16.171666,14.622277]}},{"type":"Feature","properties":{"name":"Ecole keur serigne mbaye sarr","fclass":"school","osm_type":"way","osm_id":464141339,"operator":null,"religion":null,"source":"OpenStreetMap"},"bbox":[-16.22314,14.64459,-16.22314,14.64459],"geometry":{"type":"Point","coordinates":[-16.22314,14.64459]}},{"type":"Feature","properties":{"name":"École sans nom","fclass":"school","osm_type":"way","osm_id":464143800,"operator":null,"religion":null,"source":"OpenStreetMap"},"bbox":[-16.161301,14.568736,-16.161301,14.568736],"geometry":{"type":"Point","coordinates":[-16.161301,14.568736]}},{"type":"Feature","properties":{"name":"École sans nom","fclass":"school","osm_type":"way","osm_id":464276981,"operator":null,"religion":null,"source":"OpenStreetMap"},"bbox":[-16.288355,14.586091,-16.288355,14.586091],"geometry":{"type":"Point","coordinates":[-16.288355,14.586091]}},{"type":"Feature","properties":{"name":"École sans nom","fclass":"school","osm_type":"way","osm_id":464305006,"operator":null,"religion":null,"source":"OpenStreetMap"},"bbox":[-16.291599,14.636153,-16.291599,14.636153],"geometry":{"type":"Point","coordinates":[-16.291599,14.636153]}},{"type":"Feature","properties":{"name":"École sans nom","fclass":"school","osm_type":"way","osm_id":464305368,"operator":null,"religion":null,"source":"OpenStreetMap"},"bbox":[-16.293264,14.647099,-16.293264,14.647099],"geometry":{"type":"Point","coordinates":[-16.293264,14.647099]}},{"type":"Feature","properties":{"name":"École sans nom","fclass":"school","osm_type":"way","osm_id":464308620,"operator":null,"religion":null,"source":"OpenStreetMap"},"bbox":[-16.292736,14.632322,-16.292736,14.632322],"geometry":{"type":"Point","coordinates":[-16.292736,14.632322]}},{"type":"Feature","properties":{"name":"École sans nom","fclass":"school","osm_type":"way","osm_id":464308634,"operator":null,"religion":null,"source":"OpenStreetMap"},"bbox":[-16.299666,14.62995,-16.299666,14.62995],"geometry":{"type":"Point","coordinates":[-16.299666,14.62995]}},{"type":"Feature","properties":{"name":"Lycée Technique Cheikh Amadou Bamba M'Backe","fclass":"school","osm_type":"way","osm_id":521260781,"operator":"MEN","religion":null,"source":"OpenStreetMap"},"bbox":[-16.250236,14.652134,-16.250236,14.652134],"geometry":{"type":"Point","coordinates":[-16.250236,14.652134]}},{"type":"Feature","properties":{"name":"Lycée Scientifique d'Excellence de Diourbel","fclass":"school","osm_type":"way","osm_id":555755470,"operator":"MEN","religion":null,"source":"OpenStreetMap"},"bbox":[-16.194298,14.673614,-16.194298,14.673614],"geometry":{"type":"Point","coordinates":[-16.194298,14.673614]}},{"type":"Feature","properties":{"name":"École Elementaire Algor Dioum (École 9)","fclass":"school","osm_type":"way","osm_id":563367175,"operator":null,"religion":null,"source":"OpenStreetMap"},"bbox":[-16.23917,14.652187,-16.23917,14.652187],"geometry":{"type":"Point","coordinates":[-16.23917,14.652187]}},{"type":"Feature","properties":{"name":"CEM Grand Diourbel","fclass":"school","osm_type":"way","osm_id":665693861,"operator":null,"religion":null,"source":"OpenStreetMap"},"bbox":[-16.234004,14.639398,-16.234004,14.639398],"geometry":{"type":"Point","coordinates":[-16.234004,14.639398]}},{"type":"Feature","properties":{"name":"École sans nom","fclass":"school","osm_type":"way","osm_id":665693870,"operator":null,"religion":null,"source":"OpenStreetMap"},"bbox":[-16.227146,14.640424,-16.227146,14.640424],"geometry":{"type":"Point","coordinates":[-16.227146,14.640424]}},{"type":"Feature","properties":{"name":"École sans nom","fclass":"school","osm_type":"way","osm_id":665693874,"operator":null,"religion":null,"source":"OpenStreetMap"},"bbox":[-16.229621,14.63815,-16.229621,14.63815],"geometry":{"type":"Point","coordinates":[-16.229621,14.63815]}},{"type":"Feature","properties":{"name":"École sans nom","fclass":"school","osm_type":"way","osm_id":665864271,"operator":null,"religion":null,"source":"OpenStreetMap"},"bbox":[-16.240133,14.67096,-16.240133,14.67096],"geometry":{"type":"Point","coordinates":[-16.240133,14.67096]}},{"type":"Feature","properties":{"name":"École sans nom","fclass":"school","osm_type":"way","osm_id":665864272,"operator":null,"religion":null,"source":"OpenStreetMap"},"bbox":[-16.245645,14.666641,-16.245645,14.666641],"geometry":{"type":"Point","coordinates":[-16.245645,14.666641]}},{"type":"Feature","properties":{"name":"École sans nom","fclass":"school","osm_type":"way","osm_id":665868636,"operator":null,"religion":null,"source":"OpenStreetMap"},"bbox":[-16.20398,14.667183,-16.20398,14.667183],"geometry":{"type":"Point","coordinates":[-16.20398,14.667183]}},{"type":"Feature","properties":{"name":"École sans nom","fclass":"school","osm_type":"way","osm_id":666002902,"operator":null,"religion":null,"source":"OpenStreetMap"},"bbox":[-16.210509,14.65901,-16.210509,14.65901],"geometry":{"type":"Point","coordinates":[-16.210509,14.65901]}},{"type":"Feature","properties":{"name":"École sans nom","fclass":"school","osm_type":"way","osm_id":666002908,"operator":null,"religion":null,"source":"OpenStreetMap"},"bbox":[-16.255553,14.647807,-16.255553,14.647807],"geometry":{"type":"Point","coordinates":[-16.255553,14.647807]}},{"type":"Feature","properties":{"name":"École sans nom","fclass":"school","osm_type":"way","osm_id":666002920,"operator":null,"religion":null,"source":"OpenStreetMap"},"bbox":[-16.216496,14.664263,-16.216496,14.664263],"geometry":{"type":"Point","coordinates":[-16.216496,14.664263]}},{"type":"Feature","properties":{"name":"École sans nom","fclass":"school","osm_type":"way","osm_id":666002931,"operator":null,"religion":null,"source":"OpenStreetMap"},"bbox":[-16.224805,14.67349,-16.224805,14.67349],"geometry":{"type":"Point","coordinates":[-16.224805,14.67349]}},{"type":"Feature","properties":{"name":"École sans nom","fclass":"school","osm_type":"way","osm_id":666002932,"operator":null,"religion":null,"source":"OpenStreetMap"},"bbox":[-16.224571,14.674539,-16.224571,14.674539],"geometry":{"type":"Point","coordinates":[-16.224571,14.674539]}},{"type":"Feature","properties":{"name":"École sans nom","fclass":"school","osm_type":"way","osm_id":667225774,"operator":null,"religion":null,"source":"OpenStreetMap"},"bbox":[-16.212792,14.645628,-16.212792,14.645628],"geometry":{"type":"Point","coordinates":[-16.212792,14.645628]}},{"type":"Feature","properties":{"name":"École sans nom","fclass":"school","osm_type":"way","osm_id":667225775,"operator":null,"religion":null,"source":"OpenStreetMap"},"bbox":[-16.217216,14.643339,-16.217216,14.643339],"geometry":{"type":"Point","coordinates":[-16.217216,14.643339]}},{"type":"Feature","properties":{"name":"École sans nom","fclass":"school","osm_type":"way","osm_id":667225777,"operator":null,"religion":null,"source":"OpenStreetMap"},"bbox":[-16.22676,14.641083,-16.22676,14.641083],"geometry":{"type":"Point","coordinates":[-16.22676,14.641083]}},{"type":"Feature","properties":{"name":"École sans nom","fclass":"school","osm_type":"way","osm_id":667225812,"operator":null,"religion":null,"source":"OpenStreetMap"},"bbox":[-16.245616,14.655584,-16.245616,14.655584],"geometry":{"type":"Point","coordinates":[-16.245616,14.655584]}},{"type":"Feature","properties":{"name":"École sans nom","fclass":"school","osm_type":"way","osm_id":667225813,"operator":null,"religion":null,"source":"OpenStreetMap"},"bbox":[-16.245927,14.656384,-16.245927,14.656384],"geometry":{"type":"Point","coordinates":[-16.245927,14.656384]}},{"type":"Feature","properties":{"name":"École sans nom","fclass":"school","osm_type":"way","osm_id":667322286,"operator":null,"religion":null,"source":"OpenStreetMap"},"bbox":[-16.197391,14.675818,-16.197391,14.675818],"geometry":{"type":"Point","coordinates":[-16.197391,14.675818]}},{"type":"Feature","properties":{"name":"École sans nom","fclass":"school","osm_type":"way","osm_id":667731075,"operator":null,"religion":null,"source":"OpenStreetMap"},"bbox":[-16.229627,14.631656,-16.229627,14.631656],"geometry":{"type":"Point","coordinates":[-16.229627,14.631656]}},{"type":"Feature","properties":{"name":"École sans nom","fclass":"school","osm_type":"way","osm_id":667738206,"operator":null,"religion":null,"source":"OpenStreetMap"},"bbox":[-16.274111,14.65592,-16.274111,14.65592],"geometry":{"type":"Point","coordinates":[-16.274111,14.65592]}},{"type":"Feature","properties":{"name":"École sans nom","fclass":"school","osm_type":"way","osm_id":667758401,"operator":null,"religion":null,"source":"OpenStreetMap"},"bbox":[-16.244358,14.645915,-16.244358,14.645915],"geometry":{"type":"Point","coordinates":[-16.244358,14.645915]}},{"type":"Feature","properties":{"name":"École sans nom","fclass":"school","osm_type":"way","osm_id":966238056,"operator":null,"religion":null,"source":"OpenStreetMap"},"bbox":[-16.351724,14.909788,-16.351724,14.909788],"geometry":{"type":"Point","coordinates":[-16.351724,14.909788]}},{"type":"Feature","properties":{"name":"École sans nom","fclass":"school","osm_type":"way","osm_id":1109107036,"operator":null,"religion":null,"source":"OpenStreetMap"},"bbox":[-16.148159,14.58144,-16.148159,14.58144],"geometry":{"type":"Point","coordinates":[-16.148159,14.58144]}},{"type":"Feature","properties":{"name":"École sans nom","fclass":"school","osm_type":"way","osm_id":1109107678,"operator":null,"religion":null,"source":"OpenStreetMap"},"bbox":[-16.179595,14.575348,-16.179595,14.575348],"geometry":{"type":"Point","coordinates":[-16.179595,14.575348]}},{"type":"Feature","properties":{"name":"École sans nom","fclass":"school","osm_type":"way","osm_id":1109112881,"operator":null,"religion":null,"source":"OpenStreetMap"},"bbox":[-16.223785,14.582014,-16.223785,14.582014],"geometry":{"type":"Point","coordinates":[-16.223785,14.582014]}},{"type":"Feature","properties":{"name":"École sans nom","fclass":"school","osm_type":"way","osm_id":1109115520,"operator":null,"religion":null,"source":"OpenStreetMap"},"bbox":[-16.243348,14.603803,-16.243348,14.603803],"geometry":{"type":"Point","coordinates":[-16.243348,14.603803]}},{"type":"Feature","properties":{"name":"École sans nom","fclass":"school","osm_type":"way","osm_id":1109116116,"operator":null,"religion":null,"source":"OpenStreetMap"},"bbox":[-16.214933,14.594888,-16.214933,14.594888],"geometry":{"type":"Point","coordinates":[-16.214933,14.594888]}},{"type":"Feature","properties":{"name":"École sans nom","fclass":"school","osm_type":"way","osm_id":1110272938,"operator":null,"religion":null,"source":"OpenStreetMap"},"bbox":[-16.331775,14.959893,-16.331775,14.959893],"geometry":{"type":"Point","coordinates":[-16.331775,14.959893]}},{"type":"Feature","properties":{"name":"École sans nom","fclass":"school","osm_type":"way","osm_id":1123406778,"operator":null,"religion":null,"source":"OpenStreetMap"},"bbox":[-16.089568,14.724554,-16.089568,14.724554],"geometry":{"type":"Point","coordinates":[-16.089568,14.724554]}},{"type":"Feature","properties":{"name":"École sans nom","fclass":"school","osm_type":"way","osm_id":1128437323,"operator":null,"religion":null,"source":"OpenStreetMap"},"bbox":[-16.33481,14.593118,-16.33481,14.593118],"geometry":{"type":"Point","coordinates":[-16.33481,14.593118]}},{"type":"Feature","properties":{"name":"École sans nom","fclass":"school","osm_type":"way","osm_id":1128441861,"operator":null,"religion":null,"source":"OpenStreetMap"},"bbox":[-16.27882,14.634618,-16.27882,14.634618],"geometry":{"type":"Point","coordinates":[-16.27882,14.634618]}},{"type":"Feature","properties":{"name":"École sans nom","fclass":"school","osm_type":"way","osm_id":1128441864,"operator":null,"religion":null,"source":"OpenStreetMap"},"bbox":[-16.321872,14.64653,-16.321872,14.64653],"geometry":{"type":"Point","coordinates":[-16.321872,14.64653]}},{"type":"Feature","properties":{"name":"École sans nom","fclass":"school","osm_type":"way","osm_id":1219750933,"operator":null,"religion":null,"source":"OpenStreetMap"},"bbox":[-16.066205,14.577897,-16.066205,14.577897],"geometry":{"type":"Point","coordinates":[-16.066205,14.577897]}},{"type":"Feature","properties":{"name":"École sans nom","fclass":"school","osm_type":"way","osm_id":1273422838,"operator":null,"religion":null,"source":"OpenStreetMap"},"bbox":[-16.14075,14.75966,-16.14075,14.75966],"geometry":{"type":"Point","coordinates":[-16.14075,14.75966]}}]}