{"type":"FeatureCollection","name":"Routes_8","xy_coordinate_resolution":1e-06,"bbox":[-16.372522,14.543096,-16.050714,14.999919],"features":[{"type":"Feature","properties":{"FNODE_":"0","TNODE_":"0","LPOLY_":"0","RPOLY_":"0","LONGUEUR":24146.38,"ROUTESA3_":"0","ROUTESA3_I":"0","CODE":2.0,"FONCTION":"Route principale à 2 voies"},"bbox":[-16.339349,14.649344,-16.234211,14.668922],"geometry":{"type":"MultiLineString","coordinates":[[[-16.339349,14.668922],[-16.339308,14.668913],[-16.331916,14.667261],[-16.323269,14.665412],[-16.311763,14.662833],[-16.301305,14.660722],[-16.28987,14.65821],[-16.276761,14.655299],[-16.267139,14.65325],[-16.260445,14.651659],[-16.25201,14.65001],[-16.249847,14.649344],[-16.248457,14.649758],[-16.246789,14.650377],[-16.234211,14.654987]]]}},{"type":"Feature","properties":{"FNODE_":"0","TNODE_":"0","LPOLY_":"0","RPOLY_":"0","LONGUEUR":26122.46,"ROUTESA3_":"0","ROUTESA3_I":"0","CODE":2.0,"FONCTION":"Route principale à 2 voies"},"bbox":[-16.227358,14.560029,-16.164302,14.64987],"geometry":{"type":"MultiLineString","coordinates":[[[-16.227358,14.64987],[-16.222245,14.644609],[-16.217903,14.640089],[-16.214961,14.636986],[-16.212511,14.634694],[-16.211531,14.633614],[-16.210968,14.6326],[-16.208233,14.629089],[-16.202344,14.621797],[-16.198143,14.617344],[-16.196951,14.615858],[-16.196177,14.614438],[-16.195193,14.612749],[-16.194138,14.61072],[-16.190341,14.603756],[-16.185556,14.594289],[-16.183516,14.590434],[-16.182882,14.589082],[-16.18239,14.588135],[-16.181758,14.587121],[-16.181128,14.586446],[-16.179443,14.583879],[-16.1786,14.582459],[-16.177409,14.581041],[-16.175588,14.578949],[-16.171877,14.574832],[-16.169219,14.572472],[-16.167122,14.57072],[-16.166421,14.569842],[-16.165581,14.568897],[-16.164737,14.567409],[-16.164381,14.565852],[-16.164302,14.563954],[-16.16443,14.561851],[-16.164787,14.560029]]]}},{"type":"Feature","properties":{"FNODE_":"0","TNODE_":"0","LPOLY_":"0","RPOLY_":"0","LONGUEUR":38391.16,"ROUTESA3_":"0","ROUTESA3_I":"0","CODE":2.0,"FONCTION":"Route principale à 2 voies"},"bbox":[-16.234211,14.654987,-16.089085,14.743967],"geometry":{"type":"MultiLineString","coordinates":[[[-16.234211,14.654987],[-16.233237,14.655263],[-16.232195,14.655675],[-16.230667,14.656429],[-16.229347,14.656911],[-16.227818,14.657529],[-16.226566,14.657807],[-16.225586,14.656863],[-16.225022,14.655645],[-16.224048,14.655718],[-16.223147,14.656604],[-16.222313,14.656812],[-16.221129,14.656818],[-16.219249,14.656896],[-16.217373,14.657584],[-16.215914,14.658337],[-16.210304,14.663858],[-16.192829,14.677644],[-16.183607,14.685217],[-16.172233,14.694427],[-16.158637,14.704936],[-16.156696,14.706777],[-16.155587,14.707799],[-16.154133,14.709366],[-16.153094,14.710523],[-16.147682,14.714686],[-16.145601,14.716256],[-16.144697,14.716667],[-16.143655,14.717079],[-16.141985,14.717426],[-16.140872,14.717771],[-16.140108,14.718181],[-16.128649,14.725085],[-16.123858,14.728024],[-16.118928,14.731166],[-16.117121,14.732057],[-16.11587,14.732605],[-16.114409,14.733087],[-16.112739,14.733434],[-16.111835,14.733845],[-16.104537,14.737134],[-16.09119,14.742893],[-16.089085,14.743967]]]}},{"type":"Feature","properties":{"FNODE_":"0","TNODE_":"0","LPOLY_":"0","RPOLY_":"0","LONGUEUR":29713.27,"ROUTESA3_":"0","ROUTESA3_I":"0","CODE":6.0,"FONCTION":"Chemin de fer"},"bbox":[-16.254592,14.543096,-16.108042,14.664512],"geometry":{"type":"MultiLineString","coordinates":[[[-16.108042,14.543096],[-16.112782,14.548746],[-16.118875,14.556107],[-16.134984,14.575353],[-16.145561,14.58798],[-16.160482,14.605534],[-16.170573,14.617891],[-16.187249,14.637332],[-16.200848,14.653873],[-16.207995,14.661972],[-16.210721,14.663653],[-16.214834,14.664512],[-16.218942,14.664355],[-16.222416,14.662846],[-16.225472,14.661406],[-16.230615,14.659616],[-16.242358,14.654875],[-16.245558,14.654316],[-16.249242,14.653144],[-16.254592,14.651013]]]}},{"type":"Feature","properties":{"FNODE_":"0","TNODE_":"0","LPOLY_":"0","RPOLY_":"0","LONGUEUR":3447.452,"ROUTESA3_":"0","ROUTESA3_I":"0","CODE":8.0,"FONCTION":"Autres routes"},"bbox":[-16.227358,14.64929,-16.198745,14.65544],"geometry":{"type":"MultiLineString","coordinates":[[[-16.198745,14.651375],[-16.202791,14.652575],[-16.212486,14.65544],[-16.213875,14.654822],[-16.214911,14.653258],[-16.21602,14.652167],[-16.216922,14.651688],[-16.218108,14.652088],[-16.219078,14.651066],[-16.220255,14.649975],[-16.221714,14.64929],[-16.227358,14.64987]]]}},{"type":"Feature","properties":{"FNODE_":"0","TNODE_":"0","LPOLY_":"0","RPOLY_":"0","LONGUEUR":28079.97,"ROUTESA3_":"0","ROUTESA3_I":"0","CODE":3.0,"FONCTION":"Route principale"},"bbox":[-16.360361,14.98646,-16.316779,14.999919],"geometry":{"type":"MultiLineString","coordinates":[[[-16.360361,14.98646],[-16.355844,14.987447],[-16.346727,14.990484],[-16.33872,14.992701],[-16.330295,14.99492],[-16.322014,14.997951],[-16.317143,14.999809],[-16.316779,14.999919]]]}},{"type":"Feature","properties":{"FNODE_":"0","TNODE_":"0","LPOLY_":"0","RPOLY_":"0","LONGUEUR":14260.17,"ROUTESA3_":"0","ROUTESA3_I":"0","CODE":6.0,"FONCTION":"Chemin de fer"},"bbox":[-16.339092,14.652137,-16.259891,14.66931],"geometry":{"type":"MultiLineString","coordinates":[[[-16.339092,14.66931],[-16.333105,14.668068],[-16.313858,14.66377],[-16.292522,14.65928],[-16.259891,14.652137]]]}},{"type":"Feature","properties":{"FNODE_":"0","TNODE_":"0","LPOLY_":"0","RPOLY_":"0","LONGUEUR":607.8547,"ROUTESA3_":"0","ROUTESA3_I":"0","CODE":8.0,"FONCTION":"Autres routes"},"bbox":[-16.2601,14.651013,-16.254592,14.652204],"geometry":{"type":"MultiLineString","coordinates":[[[-16.2601,14.652204],[-16.257032,14.651474],[-16.254592,14.651013]]]}},{"type":"Feature","properties":{"FNODE_":"0","TNODE_":"0","LPOLY_":"0","RPOLY_":"0","LONGUEUR":652.0782,"ROUTESA3_":"0","ROUTESA3_I":"0","CODE":8.0,"FONCTION":"Autres routes"},"bbox":[-16.233483,14.649363,-16.227497,14.649997],"geometry":{"type":"MultiLineString","coordinates":[[[-16.227497,14.649802],[-16.22896,14.649997],[-16.230352,14.649922],[-16.233483,14.649363]]]}},{"type":"Feature","properties":{"FNODE_":"0","TNODE_":"0","LPOLY_":"0","RPOLY_":"0","LONGUEUR":14172.01,"ROUTESA3_":"0","ROUTESA3_I":"0","CODE":6.0,"FONCTION":"Chemin de fer"},"bbox":[-16.218942,14.664355,-16.11317,14.736076],"geometry":{"type":"MultiLineString","coordinates":[[[-16.218942,14.664355],[-16.216582,14.665724],[-16.214014,14.667364],[-16.212487,14.668254],[-16.210754,14.669754],[-16.209372,14.67166],[-16.20162,14.680582],[-16.191173,14.693381],[-16.185426,14.699784],[-16.177241,14.706131],[-16.17141,14.709754],[-16.166476,14.712084],[-16.164947,14.712634],[-16.163486,14.713048],[-16.158902,14.715512],[-16.155356,14.716818],[-16.15091,14.719145],[-16.135133,14.726003],[-16.125193,14.730255],[-16.119007,14.733064],[-16.116923,14.734159],[-16.115461,14.734438],[-16.114558,14.734916],[-16.11317,14.736076]]]}},{"type":"Feature","properties":{"FNODE_":"0","TNODE_":"0","LPOLY_":"0","RPOLY_":"0","LONGUEUR":21941.8,"ROUTESA3_":"0","ROUTESA3_I":"0","CODE":6.0,"FONCTION":"Chemin de fer"},"bbox":[-16.11317,14.736076,-16.087307,14.746955],"geometry":{"type":"MultiLineString","coordinates":[[[-16.11317,14.736076],[-16.105036,14.739437],[-16.098224,14.742453],[-16.087307,14.746955]]]}},{"type":"Feature","properties":{"FNODE_":"0","TNODE_":"0","LPOLY_":"0","RPOLY_":"0","LONGUEUR":19162.37,"ROUTESA3_":"0","ROUTESA3_I":"0","CODE":4.0,"FONCTION":"Piste automobile"},"bbox":[-16.244393,14.57607,-16.233483,14.649295],"geometry":{"type":"MultiLineString","coordinates":[[[-16.244393,14.57607],[-16.243415,14.582937],[-16.242119,14.587554],[-16.24165,14.590946],[-16.237549,14.604527],[-16.23655,14.612533],[-16.23787,14.624594],[-16.238268,14.633405],[-16.235408,14.644878],[-16.233483,14.649295]]]}},{"type":"Feature","properties":{"FNODE_":"0","TNODE_":"0","LPOLY_":"0","RPOLY_":"0","LONGUEUR":15056.75,"ROUTESA3_":"0","ROUTESA3_I":"0","CODE":3.0,"FONCTION":"Route principale"},"bbox":[-16.232616,14.660644,-16.209957,14.790302],"geometry":{"type":"MultiLineString","coordinates":[[[-16.228532,14.660644],[-16.227993,14.663969],[-16.227594,14.667361],[-16.228444,14.669865],[-16.22936,14.67169],[-16.230771,14.675005],[-16.231591,14.684696],[-16.232452,14.701505],[-16.232616,14.705911],[-16.232075,14.708829],[-16.230421,14.712024],[-16.227441,14.714752],[-16.225298,14.717679],[-16.222402,14.722914],[-16.221722,14.726037],[-16.22139,14.728954],[-16.220344,14.741298],[-16.219679,14.746929],[-16.219325,14.758388],[-16.217763,14.778126],[-16.217565,14.780161],[-16.209957,14.790302]]]}},{"type":"Feature","properties":{"FNODE_":"0","TNODE_":"0","LPOLY_":"0","RPOLY_":"0","LONGUEUR":4535.09,"ROUTESA3_":"0","ROUTESA3_I":"0","CODE":7.0,"FONCTION":"Autres pistes"},"bbox":[-16.089926,14.877469,-16.083976,14.887332],"geometry":{"type":"MultiLineString","coordinates":[[[-16.083976,14.887332],[-16.085446,14.883706],[-16.089926,14.877469]]]}},{"type":"Feature","properties":{"FNODE_":"0","TNODE_":"0","LPOLY_":"0","RPOLY_":"0","LONGUEUR":1319.596,"ROUTESA3_":"0","ROUTESA3_I":"0","CODE":7.0,"FONCTION":"Autres pistes"},"bbox":[-16.095853,14.921996,-16.088755,14.931692],"geometry":{"type":"MultiLineString","coordinates":[[[-16.095853,14.921996],[-16.093744,14.92543],[-16.091803,14.927745],[-16.089447,14.930604],[-16.088755,14.931692]]]}},{"type":"Feature","properties":{"FNODE_":"0","TNODE_":"0","LPOLY_":"0","RPOLY_":"0","LONGUEUR":1432.98,"ROUTESA3_":"0","ROUTESA3_I":"0","CODE":7.0,"FONCTION":"Autres pistes"},"bbox":[-16.107774,14.914786,-16.096476,14.921044],"geometry":{"type":"MultiLineString","coordinates":[[[-16.096476,14.921044],[-16.100132,14.920247],[-16.103192,14.918605],[-16.106661,14.915334],[-16.107774,14.914786]]]}},{"type":"Feature","properties":{"FNODE_":"0","TNODE_":"0","LPOLY_":"0","RPOLY_":"0","LONGUEUR":2062.938,"ROUTESA3_":"0","ROUTESA3_I":"0","CODE":7.0,"FONCTION":"Autres pistes"},"bbox":[-16.113845,14.921518,-16.096618,14.929266],"geometry":{"type":"MultiLineString","coordinates":[[[-16.096618,14.921518],[-16.098335,14.923239],[-16.101828,14.924578],[-16.10518,14.925647],[-16.113845,14.929266]]]}},{"type":"Feature","properties":{"FNODE_":"0","TNODE_":"0","LPOLY_":"0","RPOLY_":"0","LONGUEUR":777.9784,"ROUTESA3_":"0","ROUTESA3_I":"0","CODE":7.0,"FONCTION":"Autres pistes"},"bbox":[-16.142647,14.835189,-16.135805,14.837461],"geometry":{"type":"MultiLineString","coordinates":[[[-16.142647,14.837461],[-16.139016,14.836258],[-16.135805,14.835189]]]}},{"type":"Feature","properties":{"FNODE_":"0","TNODE_":"0","LPOLY_":"0","RPOLY_":"0","LONGUEUR":3547.874,"ROUTESA3_":"0","ROUTESA3_I":"0","CODE":7.0,"FONCTION":"Autres pistes"},"bbox":[-16.143219,14.84017,-16.130688,14.869792],"geometry":{"type":"MultiLineString","coordinates":[[[-16.143219,14.84017],[-16.141843,14.843702],[-16.140049,14.847101],[-16.138397,14.851177],[-16.136603,14.854576],[-16.133024,14.863272],[-16.130688,14.869792]]]}},{"type":"Feature","properties":{"FNODE_":"0","TNODE_":"0","LPOLY_":"0","RPOLY_":"0","LONGUEUR":2553.66,"ROUTESA3_":"0","ROUTESA3_I":"0","CODE":7.0,"FONCTION":"Autres pistes"},"bbox":[-16.167482,14.837986,-16.144183,14.841675],"geometry":{"type":"MultiLineString","coordinates":[[[-16.144183,14.837995],[-16.145995,14.837986],[-16.146834,14.838525],[-16.14823,14.838924],[-16.152416,14.839581],[-16.167482,14.841675]]]}},{"type":"Feature","properties":{"FNODE_":"0","TNODE_":"0","LPOLY_":"0","RPOLY_":"0","LONGUEUR":838.1336,"ROUTESA3_":"0","ROUTESA3_I":"0","CODE":7.0,"FONCTION":"Autres pistes"},"bbox":[-16.112701,14.814963,-16.10934,14.818265],"geometry":{"type":"MultiLineString","coordinates":[[[-16.10934,14.818265],[-16.111037,14.816598],[-16.112701,14.814963]]]}},{"type":"Feature","properties":{"FNODE_":"0","TNODE_":"0","LPOLY_":"0","RPOLY_":"0","LONGUEUR":309.2329,"ROUTESA3_":"0","ROUTESA3_I":"0","CODE":7.0,"FONCTION":"Autres pistes"},"bbox":[-16.114922,14.813189,-16.112701,14.814963],"geometry":{"type":"MultiLineString","coordinates":[[[-16.112701,14.814963],[-16.114922,14.813189]]]}},{"type":"Feature","properties":{"FNODE_":"0","TNODE_":"0","LPOLY_":"0","RPOLY_":"0","LONGUEUR":1013.753,"ROUTESA3_":"0","ROUTESA3_I":"0","CODE":4.0,"FONCTION":"Piste automobile"},"bbox":[-16.127482,14.807579,-16.125207,14.816247],"geometry":{"type":"MultiLineString","coordinates":[[[-16.127482,14.816247],[-16.127325,14.812722],[-16.127036,14.810825],[-16.126331,14.809201],[-16.125207,14.807579]]]}},{"type":"Feature","properties":{"FNODE_":"0","TNODE_":"0","LPOLY_":"0","RPOLY_":"0","LONGUEUR":1182.273,"ROUTESA3_":"0","ROUTESA3_I":"0","CODE":7.0,"FONCTION":"Autres pistes"},"bbox":[-16.134827,14.808075,-16.128321,14.816649],"geometry":{"type":"MultiLineString","coordinates":[[[-16.128321,14.816649],[-16.12929,14.815424],[-16.131091,14.813381],[-16.133307,14.810659],[-16.134827,14.808075]]]}},{"type":"Feature","properties":{"FNODE_":"0","TNODE_":"0","LPOLY_":"0","RPOLY_":"0","LONGUEUR":883.2037,"ROUTESA3_":"0","ROUTESA3_I":"0","CODE":7.0,"FONCTION":"Autres pistes"},"bbox":[-16.135575,14.816649,-16.128321,14.818937],"geometry":{"type":"MultiLineString","coordinates":[[[-16.128321,14.816649],[-16.129721,14.817863],[-16.130558,14.81813],[-16.131956,14.818937],[-16.13321,14.818795],[-16.135575,14.817834]]]}},{"type":"Feature","properties":{"FNODE_":"0","TNODE_":"0","LPOLY_":"0","RPOLY_":"0","LONGUEUR":418.041,"ROUTESA3_":"0","ROUTESA3_I":"0","CODE":7.0,"FONCTION":"Autres pistes"},"bbox":[-16.127495,14.817061,-16.126945,14.820723],"geometry":{"type":"MultiLineString","coordinates":[[[-16.127347,14.817061],[-16.127495,14.818687],[-16.126945,14.820182],[-16.127087,14.820723]]]}},{"type":"Feature","properties":{"FNODE_":"0","TNODE_":"0","LPOLY_":"0","RPOLY_":"0","LONGUEUR":353.0581,"ROUTESA3_":"0","ROUTESA3_I":"0","CODE":7.0,"FONCTION":"Autres pistes"},"bbox":[-16.126371,14.816403,-16.123162,14.817066],"geometry":{"type":"MultiLineString","coordinates":[[[-16.126371,14.817066],[-16.123162,14.816403]]]}},{"type":"Feature","properties":{"FNODE_":"0","TNODE_":"0","LPOLY_":"0","RPOLY_":"0","LONGUEUR":1198.443,"ROUTESA3_":"0","ROUTESA3_I":"0","CODE":7.0,"FONCTION":"Autres pistes"},"bbox":[-16.114778,14.806862,-16.105412,14.812241],"geometry":{"type":"MultiLineString","coordinates":[[[-16.114778,14.812241],[-16.11296,14.811029],[-16.111,14.809411],[-16.109326,14.809012],[-16.106953,14.808346],[-16.105412,14.806862]]]}},{"type":"Feature","properties":{"FNODE_":"0","TNODE_":"0","LPOLY_":"0","RPOLY_":"0","LONGUEUR":1959.889,"ROUTESA3_":"0","ROUTESA3_I":"0","CODE":7.0,"FONCTION":"Autres pistes"},"bbox":[-16.117748,14.793514,-16.105255,14.8051],"geometry":{"type":"MultiLineString","coordinates":[[[-16.105264,14.8051],[-16.105255,14.803337],[-16.105528,14.802251],[-16.108309,14.801017],[-16.111086,14.798834],[-16.113307,14.797196],[-16.117748,14.793514]]]}},{"type":"Feature","properties":{"FNODE_":"0","TNODE_":"0","LPOLY_":"0","RPOLY_":"0","LONGUEUR":2521.325,"ROUTESA3_":"0","ROUTESA3_I":"0","CODE":7.0,"FONCTION":"Autres pistes"},"bbox":[-16.103223,14.7806,-16.090602,14.799746],"geometry":{"type":"MultiLineString","coordinates":[[[-16.103223,14.7806],[-16.101249,14.782881],[-16.099559,14.785526]],[[-16.099482,14.785645],[-16.098207,14.787641],[-16.096827,14.79036],[-16.094613,14.793489],[-16.090602,14.799746]]]}},{"type":"Feature","properties":{"FNODE_":"0","TNODE_":"0","LPOLY_":"0","RPOLY_":"0","LONGUEUR":5787.237,"ROUTESA3_":"0","ROUTESA3_I":"0","CODE":7.0,"FONCTION":"Autres pistes"},"bbox":[-16.089876,14.800732,-16.087329,14.804009],"geometry":{"type":"MultiLineString","coordinates":[[[-16.089876,14.800732],[-16.087692,14.803149],[-16.087329,14.804009]]]}},{"type":"Feature","properties":{"FNODE_":"0","TNODE_":"0","LPOLY_":"0","RPOLY_":"0","LONGUEUR":3611.981,"ROUTESA3_":"0","ROUTESA3_I":"0","CODE":7.0,"FONCTION":"Autres pistes"},"bbox":[-16.089768,14.800156,-16.086413,14.800774],"geometry":{"type":"MultiLineString","coordinates":[[[-16.086413,14.800774],[-16.089768,14.800156]]]}},{"type":"Feature","properties":{"FNODE_":"0","TNODE_":"0","LPOLY_":"0","RPOLY_":"0","LONGUEUR":4517.92,"ROUTESA3_":"0","ROUTESA3_I":"0","CODE":7.0,"FONCTION":"Autres pistes"},"bbox":[-16.118477,14.6559,-16.076555,14.656651],"geometry":{"type":"MultiLineString","coordinates":[[[-16.076555,14.656651],[-16.082333,14.656218],[-16.09222,14.6559],[-16.10225,14.656192],[-16.112836,14.656345],[-16.118477,14.656318]]]}},{"type":"Feature","properties":{"FNODE_":"0","TNODE_":"0","LPOLY_":"0","RPOLY_":"0","LONGUEUR":4310.038,"ROUTESA3_":"0","ROUTESA3_I":"0","CODE":7.0,"FONCTION":"Autres pistes"},"bbox":[-16.150216,14.662582,-16.127005,14.692978],"geometry":{"type":"MultiLineString","coordinates":[[[-16.127005,14.662582],[-16.139117,14.674795],[-16.142549,14.678642],[-16.146121,14.682354],[-16.14809,14.686005],[-16.147894,14.688582],[-16.148394,14.690885],[-16.150216,14.692978]]]}},{"type":"Feature","properties":{"FNODE_":"0","TNODE_":"0","LPOLY_":"0","RPOLY_":"0","LONGUEUR":3057.925,"ROUTESA3_":"0","ROUTESA3_I":"0","CODE":7.0,"FONCTION":"Autres pistes"},"bbox":[-16.149458,14.685437,-16.123712,14.694677],"geometry":{"type":"MultiLineString","coordinates":[[[-16.149458,14.694677],[-16.148477,14.693393],[-16.147637,14.692719],[-16.146382,14.692387],[-16.144498,14.691786],[-16.143028,14.690369],[-16.141841,14.689833],[-16.1401,14.689773],[-16.137381,14.689448],[-16.133824,14.688448],[-16.130892,14.687174],[-16.127123,14.685565],[-16.125729,14.685437],[-16.123712,14.685989]]]}},{"type":"Feature","properties":{"FNODE_":"0","TNODE_":"0","LPOLY_":"0","RPOLY_":"0","LONGUEUR":1097.023,"ROUTESA3_":"0","ROUTESA3_I":"0","CODE":7.0,"FONCTION":"Autres pistes"},"bbox":[-16.158129,14.687921,-16.152458,14.695611],"geometry":{"type":"MultiLineString","coordinates":[[[-16.152458,14.695611],[-16.153145,14.693641],[-16.153833,14.692146],[-16.154732,14.690854],[-16.15563,14.689358],[-16.157433,14.687993],[-16.158129,14.687921]]]}},{"type":"Feature","properties":{"FNODE_":"0","TNODE_":"0","LPOLY_":"0","RPOLY_":"0","LONGUEUR":3301.36,"ROUTESA3_":"0","ROUTESA3_I":"0","CODE":7.0,"FONCTION":"Autres pistes"},"bbox":[-16.16384,14.675692,-16.149707,14.70091],"geometry":{"type":"MultiLineString","coordinates":[[[-16.16384,14.70091],[-16.163275,14.699421],[-16.163473,14.697454],[-16.162908,14.695898],[-16.160874,14.693264],[-16.159328,14.690695],[-16.158624,14.689275],[-16.158129,14.687921],[-16.158052,14.68643],[-16.157624,14.684534],[-16.156926,14.684198],[-16.155526,14.682985],[-16.154821,14.681294],[-16.153141,14.679675],[-16.149707,14.675692]]]}},{"type":"Feature","properties":{"FNODE_":"0","TNODE_":"0","LPOLY_":"0","RPOLY_":"0","LONGUEUR":921.8505,"ROUTESA3_":"0","ROUTESA3_I":"0","CODE":7.0,"FONCTION":"Autres pistes"},"bbox":[-16.1481,14.674307,-16.140025,14.6754],"geometry":{"type":"MultiLineString","coordinates":[[[-16.140025,14.6754],[-16.141137,14.67492],[-16.14183,14.674307],[-16.143295,14.674638],[-16.145804,14.675101],[-16.1481,14.674615]]]}},{"type":"Feature","properties":{"FNODE_":"0","TNODE_":"0","LPOLY_":"0","RPOLY_":"0","LONGUEUR":2862.043,"ROUTESA3_":"0","ROUTESA3_I":"0","CODE":7.0,"FONCTION":"Autres pistes"},"bbox":[-16.166062,14.614875,-16.149808,14.633914],"geometry":{"type":"MultiLineString","coordinates":[[[-16.166062,14.633914],[-16.162436,14.632983],[-16.159634,14.629674],[-16.158232,14.627919],[-16.15767,14.626972],[-16.156757,14.625417],[-16.155979,14.623184],[-16.15276,14.620081],[-16.152403,14.618388],[-16.149808,14.614875]]]}},{"type":"Feature","properties":{"FNODE_":"0","TNODE_":"0","LPOLY_":"0","RPOLY_":"0","LONGUEUR":1993.807,"ROUTESA3_":"0","ROUTESA3_I":"0","CODE":7.0,"FONCTION":"Autres pistes"},"bbox":[-16.123022,14.632004,-16.112922,14.646194],"geometry":{"type":"MultiLineString","coordinates":[[[-16.123022,14.646194],[-16.120993,14.644441],[-16.120147,14.642275],[-16.119227,14.639364],[-16.117619,14.638084],[-16.116013,14.637278],[-16.114333,14.635659],[-16.113561,14.634306],[-16.113137,14.633088],[-16.112922,14.632004]]]}},{"type":"Feature","properties":{"FNODE_":"0","TNODE_":"0","LPOLY_":"0","RPOLY_":"0","LONGUEUR":1520.328,"ROUTESA3_":"0","ROUTESA3_I":"0","CODE":7.0,"FONCTION":"Autres pistes"},"bbox":[-16.111869,14.628913,-16.098717,14.632004],"geometry":{"type":"MultiLineString","coordinates":[[[-16.111869,14.630179],[-16.109218,14.629174],[-16.107058,14.628913],[-16.10483,14.629059],[-16.103928,14.629674],[-16.102262,14.630699],[-16.098717,14.632004]]]}},{"type":"Feature","properties":{"FNODE_":"0","TNODE_":"0","LPOLY_":"0","RPOLY_":"0","LONGUEUR":3416.659,"ROUTESA3_":"0","ROUTESA3_I":"0","CODE":7.0,"FONCTION":"Autres pistes"},"bbox":[-16.176529,14.624912,-16.153798,14.645569],"geometry":{"type":"MultiLineString","coordinates":[[[-16.176529,14.624912],[-16.17265,14.628796],[-16.167515,14.632076],[-16.163296,14.637453],[-16.158588,14.642629],[-16.157205,14.644535],[-16.153798,14.645569]]]}},{"type":"Feature","properties":{"FNODE_":"0","TNODE_":"0","LPOLY_":"0","RPOLY_":"0","LONGUEUR":3763.775,"ROUTESA3_":"0","ROUTESA3_I":"0","CODE":7.0,"FONCTION":"Autres pistes"},"bbox":[-16.154842,14.645428,-16.12505,14.654358],"geometry":{"type":"MultiLineString","coordinates":[[[-16.154842,14.645428],[-16.15138,14.649309],[-16.147221,14.652991],[-16.14493,14.654358],[-16.141097,14.653835],[-16.1381,14.653307],[-16.134548,14.653121],[-16.132941,14.652248],[-16.128891,14.649962],[-16.12505,14.647947]]]}},{"type":"Feature","properties":{"FNODE_":"0","TNODE_":"0","LPOLY_":"0","RPOLY_":"0","LONGUEUR":2225.761,"ROUTESA3_":"0","ROUTESA3_I":"0","CODE":7.0,"FONCTION":"Autres pistes"},"bbox":[-16.14297,14.63891,-16.125249,14.645979],"geometry":{"type":"MultiLineString","coordinates":[[[-16.125249,14.645979],[-16.126633,14.644278],[-16.127604,14.643392],[-16.131706,14.642287],[-16.133856,14.640582],[-16.137692,14.641648],[-16.139775,14.640417],[-16.141578,14.63912],[-16.14297,14.63891]]]}},{"type":"Feature","properties":{"FNODE_":"0","TNODE_":"0","LPOLY_":"0","RPOLY_":"0","LONGUEUR":1278.713,"ROUTESA3_":"0","ROUTESA3_I":"0","CODE":7.0,"FONCTION":"Autres pistes"},"bbox":[-16.152004,14.63992,-16.144438,14.648696],"geometry":{"type":"MultiLineString","coordinates":[[[-16.144438,14.63992],[-16.145628,14.641134],[-16.1464,14.642351],[-16.147381,14.643566],[-16.149198,14.644845],[-16.150391,14.646467],[-16.152004,14.648696]]]}},{"type":"Feature","properties":{"FNODE_":"0","TNODE_":"0","LPOLY_":"0","RPOLY_":"0","LONGUEUR":2725.981,"ROUTESA3_":"0","ROUTESA3_I":"0","CODE":7.0,"FONCTION":"Autres pistes"},"bbox":[-16.149808,14.598761,-16.131484,14.614875],"geometry":{"type":"MultiLineString","coordinates":[[[-16.149808,14.614875],[-16.147918,14.61285],[-16.144693,14.608595],[-16.142939,14.606095],[-16.141888,14.604744],[-16.139304,14.603197],[-16.13637,14.601313],[-16.13532,14.600234],[-16.132601,14.599365],[-16.131484,14.598761]]]}},{"type":"Feature","properties":{"FNODE_":"0","TNODE_":"0","LPOLY_":"0","RPOLY_":"0","LONGUEUR":1377.589,"ROUTESA3_":"0","ROUTESA3_I":"0","CODE":7.0,"FONCTION":"Autres pistes"},"bbox":[-16.128203,14.588171,-16.120151,14.597149],"geometry":{"type":"MultiLineString","coordinates":[[[-16.128203,14.597149],[-16.126525,14.595801],[-16.125271,14.595672],[-16.12373,14.593781],[-16.122331,14.592499],[-16.121065,14.589861],[-16.120151,14.588171]]]}},{"type":"Feature","properties":{"FNODE_":"0","TNODE_":"0","LPOLY_":"0","RPOLY_":"0","LONGUEUR":1935.135,"ROUTESA3_":"0","ROUTESA3_I":"0","CODE":7.0,"FONCTION":"Autres pistes"},"bbox":[-16.107525,14.722189,-16.096451,14.735696],"geometry":{"type":"MultiLineString","coordinates":[[[-16.107525,14.735696],[-16.105498,14.73435],[-16.103608,14.732596],[-16.097577,14.724556],[-16.096451,14.722189]]]}},{"type":"Feature","properties":{"FNODE_":"0","TNODE_":"0","LPOLY_":"0","RPOLY_":"0","LONGUEUR":1583.638,"ROUTESA3_":"0","ROUTESA3_I":"0","CODE":7.0,"FONCTION":"Autres pistes"},"bbox":[-16.103257,14.724449,-16.091585,14.732062],"geometry":{"type":"MultiLineString","coordinates":[[[-16.091585,14.724449],[-16.092009,14.725532],[-16.094596,14.727418],[-16.098023,14.730182],[-16.099842,14.731665],[-16.101864,14.732062],[-16.103257,14.73192]]]}},{"type":"Feature","properties":{"FNODE_":"0","TNODE_":"0","LPOLY_":"0","RPOLY_":"0","LONGUEUR":3073.147,"ROUTESA3_":"0","ROUTESA3_I":"0","CODE":7.0,"FONCTION":"Autres pistes"},"bbox":[-16.123009,14.711892,-16.096718,14.71995],"geometry":{"type":"MultiLineString","coordinates":[[[-16.096718,14.71995],[-16.098176,14.718994],[-16.099214,14.717633],[-16.101995,14.716603],[-16.106029,14.715295],[-16.10986,14.715209],[-16.112364,14.714452],[-16.113962,14.713698],[-16.114934,14.713083],[-16.11612,14.713281],[-16.117584,14.713613],[-16.118766,14.713065],[-16.120644,14.712581],[-16.123009,14.711892]]]}},{"type":"Feature","properties":{"FNODE_":"0","TNODE_":"0","LPOLY_":"0","RPOLY_":"0","LONGUEUR":2874.405,"ROUTESA3_":"0","ROUTESA3_I":"0","CODE":7.0,"FONCTION":"Autres pistes"},"bbox":[-16.124206,14.714394,-16.108564,14.734403],"geometry":{"type":"MultiLineString","coordinates":[[[-16.124206,14.714394],[-16.123586,14.715889],[-16.122198,14.716777],[-16.119425,14.719435],[-16.11839,14.721474],[-16.115825,14.723859],[-16.112917,14.727263],[-16.109793,14.729583],[-16.108696,14.732978],[-16.108564,14.734403]]]}},{"type":"Feature","properties":{"FNODE_":"0","TNODE_":"0","LPOLY_":"0","RPOLY_":"0","LONGUEUR":949.4224,"ROUTESA3_":"0","ROUTESA3_I":"0","CODE":7.0,"FONCTION":"Autres pistes"},"bbox":[-16.088798,14.724191,-16.083397,14.730861],"geometry":{"type":"MultiLineString","coordinates":[[[-16.088798,14.724191],[-16.087409,14.725215],[-16.08637,14.726304],[-16.08547,14.727529],[-16.083397,14.730861]]]}},{"type":"Feature","properties":{"FNODE_":"0","TNODE_":"0","LPOLY_":"0","RPOLY_":"0","LONGUEUR":153.8871,"ROUTESA3_":"0","ROUTESA3_I":"0","CODE":7.0,"FONCTION":"Autres pistes"},"bbox":[-16.080908,14.734805,-16.080045,14.735597],"geometry":{"type":"MultiLineString","coordinates":[[[-16.080908,14.734805],[-16.080045,14.735597]]]}},{"type":"Feature","properties":{"FNODE_":"0","TNODE_":"0","LPOLY_":"0","RPOLY_":"0","LONGUEUR":4663.313,"ROUTESA3_":"0","ROUTESA3_I":"0","CODE":7.0,"FONCTION":"Autres pistes"},"bbox":[-16.094594,14.740648,-16.091061,14.741114],"geometry":{"type":"MultiLineString","coordinates":[[[-16.094594,14.741114],[-16.091061,14.740648]]]}},{"type":"Feature","properties":{"FNODE_":"0","TNODE_":"0","LPOLY_":"0","RPOLY_":"0","LONGUEUR":866.5334,"ROUTESA3_":"0","ROUTESA3_I":"0","CODE":7.0,"FONCTION":"Autres pistes"},"bbox":[-16.076555,14.656651,-16.072772,14.657885],"geometry":{"type":"MultiLineString","coordinates":[[[-16.076555,14.656651],[-16.075582,14.657062],[-16.072772,14.657885]]]}},{"type":"Feature","properties":{"FNODE_":"0","TNODE_":"0","LPOLY_":"0","RPOLY_":"0","LONGUEUR":9137.851,"ROUTESA3_":"0","ROUTESA3_I":"0","CODE":7.0,"FONCTION":"Autres pistes"},"bbox":[-16.134548,14.647963,-16.071916,14.653874],"geometry":{"type":"MultiLineString","coordinates":[[[-16.134548,14.653121],[-16.127166,14.653225],[-16.119091,14.653874],[-16.115746,14.65328],[-16.108913,14.651685],[-16.103268,14.650966],[-16.092819,14.650338],[-16.079446,14.649722],[-16.07554,14.648588],[-16.07324,14.648056],[-16.071916,14.647963]]]}},{"type":"Feature","properties":{"FNODE_":"0","TNODE_":"0","LPOLY_":"0","RPOLY_":"0","LONGUEUR":1209.567,"ROUTESA3_":"0","ROUTESA3_I":"0","CODE":7.0,"FONCTION":"Autres pistes"},"bbox":[-16.127005,14.656251,-16.118198,14.662582],"geometry":{"type":"MultiLineString","coordinates":[[[-16.127005,14.662582],[-16.124344,14.659747],[-16.121966,14.657725],[-16.119452,14.656381],[-16.118198,14.656251]]]}},{"type":"Feature","properties":{"FNODE_":"0","TNODE_":"0","LPOLY_":"0","RPOLY_":"0","LONGUEUR":435.0,"ROUTESA3_":"0","ROUTESA3_I":"0","CODE":7.0,"FONCTION":"Autres pistes"},"bbox":[-16.121876,14.653589,-16.119104,14.65645],"geometry":{"type":"MultiLineString","coordinates":[[[-16.121876,14.653589],[-16.119104,14.65645]]]}},{"type":"Feature","properties":{"FNODE_":"0","TNODE_":"0","LPOLY_":"0","RPOLY_":"0","LONGUEUR":3960.501,"ROUTESA3_":"0","ROUTESA3_I":"0","CODE":7.0,"FONCTION":"Autres pistes"},"bbox":[-16.280202,14.808321,-16.250963,14.827143],"geometry":{"type":"MultiLineString","coordinates":[[[-16.250963,14.808321],[-16.251526,14.809267],[-16.252926,14.810412],[-16.253973,14.810745],[-16.256066,14.811073],[-16.257534,14.811878],[-16.258518,14.813297],[-16.25943,14.814376],[-16.261662,14.814839],[-16.263685,14.815099],[-16.265363,14.816107],[-16.267113,14.817385],[-16.269423,14.819203],[-16.270265,14.820079],[-16.270552,14.821502],[-16.272234,14.823255],[-16.273844,14.824466],[-16.275239,14.824662],[-16.277124,14.825126],[-16.278663,14.826067],[-16.280202,14.827143]]]}},{"type":"Feature","properties":{"FNODE_":"0","TNODE_":"0","LPOLY_":"0","RPOLY_":"0","LONGUEUR":788.4826,"ROUTESA3_":"0","ROUTESA3_I":"0","CODE":7.0,"FONCTION":"Autres pistes"},"bbox":[-16.250207,14.808325,-16.248353,14.815047],"geometry":{"type":"MultiLineString","coordinates":[[[-16.250127,14.808325],[-16.250207,14.810155],[-16.249937,14.811648],[-16.249114,14.814094],[-16.248353,14.815047]]]}},{"type":"Feature","properties":{"FNODE_":"0","TNODE_":"0","LPOLY_":"0","RPOLY_":"0","LONGUEUR":281.5593,"ROUTESA3_":"0","ROUTESA3_I":"0","CODE":7.0,"FONCTION":"Autres pistes"},"bbox":[-16.251073,14.813686,-16.249182,14.815439],"geometry":{"type":"MultiLineString","coordinates":[[[-16.249182,14.813686],[-16.250232,14.814562],[-16.251073,14.815439]]]}},{"type":"Feature","properties":{"FNODE_":"0","TNODE_":"0","LPOLY_":"0","RPOLY_":"0","LONGUEUR":953.0246,"ROUTESA3_":"0","ROUTESA3_I":"0","CODE":7.0,"FONCTION":"Autres pistes"},"bbox":[-16.260477,14.814642,-16.252753,14.81697],"geometry":{"type":"MultiLineString","coordinates":[[[-16.252753,14.816718],[-16.254426,14.816709],[-16.256239,14.81697],[-16.25812,14.816824],[-16.259302,14.816411],[-16.259857,14.815933],[-16.26027,14.815118],[-16.260477,14.814642]]]}},{"type":"Feature","properties":{"FNODE_":"0","TNODE_":"0","LPOLY_":"0","RPOLY_":"0","LONGUEUR":2636.712,"ROUTESA3_":"0","ROUTESA3_I":"0","CODE":7.0,"FONCTION":"Autres pistes"},"bbox":[-16.249286,14.807652,-16.236084,14.826706],"geometry":{"type":"MultiLineString","coordinates":[[[-16.249286,14.807652],[-16.248322,14.809691],[-16.247496,14.811458],[-16.246183,14.813296],[-16.244244,14.815408],[-16.242859,14.816975],[-16.241473,14.818406],[-16.240434,14.819564],[-16.239325,14.820587],[-16.238284,14.821271],[-16.236826,14.822295],[-16.236554,14.823449],[-16.236701,14.824872],[-16.236152,14.826299],[-16.236084,14.826706]]]}},{"type":"Feature","properties":{"FNODE_":"0","TNODE_":"0","LPOLY_":"0","RPOLY_":"0","LONGUEUR":1257.874,"ROUTESA3_":"0","ROUTESA3_I":"0","CODE":7.0,"FONCTION":"Autres pistes"},"bbox":[-16.242766,14.829618,-16.236528,14.837382],"geometry":{"type":"MultiLineString","coordinates":[[[-16.236728,14.829618],[-16.236528,14.831178],[-16.237166,14.833073],[-16.238079,14.834289],[-16.239686,14.834958],[-16.241918,14.835285],[-16.24276,14.83623],[-16.242766,14.837382]]]}},{"type":"Feature","properties":{"FNODE_":"0","TNODE_":"0","LPOLY_":"0","RPOLY_":"0","LONGUEUR":374.7722,"ROUTESA3_":"0","ROUTESA3_I":"0","CODE":7.0,"FONCTION":"Autres pistes"},"bbox":[-16.242984,14.838872,-16.241118,14.84173],"geometry":{"type":"MultiLineString","coordinates":[[[-16.242984,14.838872],[-16.242292,14.839825],[-16.241395,14.841322],[-16.241118,14.84173]]]}},{"type":"Feature","properties":{"FNODE_":"0","TNODE_":"0","LPOLY_":"0","RPOLY_":"0","LONGUEUR":1605.306,"ROUTESA3_":"0","ROUTESA3_I":"0","CODE":7.0,"FONCTION":"Autres pistes"},"bbox":[-16.240912,14.841037,-16.231217,14.846014],"geometry":{"type":"MultiLineString","coordinates":[[[-16.240912,14.842273],[-16.240432,14.8437],[-16.239882,14.844923],[-16.238773,14.846014],[-16.235705,14.845827],[-16.233261,14.844959],[-16.232351,14.844286],[-16.232205,14.843202],[-16.231849,14.841848],[-16.231217,14.841037]]]}},{"type":"Feature","properties":{"FNODE_":"0","TNODE_":"0","LPOLY_":"0","RPOLY_":"0","LONGUEUR":1619.284,"ROUTESA3_":"0","ROUTESA3_I":"0","CODE":7.0,"FONCTION":"Autres pistes"},"bbox":[-16.247597,14.816881,-16.237482,14.827309],"geometry":{"type":"MultiLineString","coordinates":[[[-16.247597,14.816881],[-16.246835,14.817631],[-16.245865,14.818721],[-16.245522,14.819672],[-16.244485,14.821034],[-16.243308,14.822396],[-16.242479,14.823689],[-16.241578,14.824643],[-16.240536,14.825123],[-16.239356,14.826011],[-16.238177,14.827034],[-16.237482,14.827309]]]}},{"type":"Feature","properties":{"FNODE_":"0","TNODE_":"0","LPOLY_":"0","RPOLY_":"0","LONGUEUR":981.235,"ROUTESA3_":"0","ROUTESA3_I":"0","CODE":7.0,"FONCTION":"Autres pistes"},"bbox":[-16.245973,14.825365,-16.237487,14.82819],"geometry":{"type":"MultiLineString","coordinates":[[[-16.237487,14.82819],[-16.238807,14.827505],[-16.240477,14.827022],[-16.241727,14.826201],[-16.243535,14.825649],[-16.244929,14.825642],[-16.245973,14.825365]]]}},{"type":"Feature","properties":{"FNODE_":"0","TNODE_":"0","LPOLY_":"0","RPOLY_":"0","LONGUEUR":930.7536,"ROUTESA3_":"0","ROUTESA3_I":"0","CODE":7.0,"FONCTION":"Autres pistes"},"bbox":[-16.251507,14.817335,-16.247152,14.824409],"geometry":{"type":"MultiLineString","coordinates":[[[-16.251502,14.817335],[-16.251507,14.818081],[-16.251094,14.8191],[-16.250334,14.820256],[-16.249295,14.821347],[-16.248465,14.822436],[-16.247635,14.823525],[-16.247152,14.824409]]]}},{"type":"Feature","properties":{"FNODE_":"0","TNODE_":"0","LPOLY_":"0","RPOLY_":"0","LONGUEUR":1051.044,"ROUTESA3_":"0","ROUTESA3_I":"0","CODE":7.0,"FONCTION":"Autres pistes"},"bbox":[-16.256029,14.825359,-16.247088,14.828903],"geometry":{"type":"MultiLineString","coordinates":[[[-16.256029,14.828903],[-16.254773,14.828571],[-16.253723,14.827763],[-16.251975,14.826891],[-16.250019,14.826021],[-16.248483,14.825622],[-16.247088,14.825359]]]}},{"type":"Feature","properties":{"FNODE_":"0","TNODE_":"0","LPOLY_":"0","RPOLY_":"0","LONGUEUR":413.099,"ROUTESA3_":"0","ROUTESA3_I":"0","CODE":7.0,"FONCTION":"Autres pistes"},"bbox":[-16.24576,14.823409,-16.242339,14.82462],"geometry":{"type":"MultiLineString","coordinates":[[[-16.24576,14.82462],[-16.24408,14.823409],[-16.242339,14.823554]]]}},{"type":"Feature","properties":{"FNODE_":"0","TNODE_":"0","LPOLY_":"0","RPOLY_":"0","LONGUEUR":3567.309,"ROUTESA3_":"0","ROUTESA3_I":"0","CODE":7.0,"FONCTION":"Autres pistes"},"bbox":[-16.280833,14.824948,-16.247852,14.82775],"geometry":{"type":"MultiLineString","coordinates":[[[-16.247852,14.824948],[-16.250991,14.825405],[-16.2565,14.825918],[-16.262147,14.826294],[-16.267378,14.826943],[-16.270515,14.827129],[-16.273024,14.827251],[-16.275394,14.827237],[-16.278809,14.827354],[-16.280833,14.82775]]]}},{"type":"Feature","properties":{"FNODE_":"0","TNODE_":"0","LPOLY_":"0","RPOLY_":"0","LONGUEUR":2421.928,"ROUTESA3_":"0","ROUTESA3_I":"0","CODE":7.0,"FONCTION":"Autres pistes"},"bbox":[-16.280208,14.828092,-16.257842,14.82929],"geometry":{"type":"MultiLineString","coordinates":[[[-16.257842,14.829029],[-16.261744,14.82894],[-16.2653,14.829259],[-16.267529,14.829044],[-16.271991,14.82929],[-16.274637,14.828869],[-16.276516,14.828452],[-16.278745,14.828304],[-16.280208,14.828092]]]}},{"type":"Feature","properties":{"FNODE_":"0","TNODE_":"0","LPOLY_":"0","RPOLY_":"0","LONGUEUR":3320.419,"ROUTESA3_":"0","ROUTESA3_I":"0","CODE":7.0,"FONCTION":"Autres pistes"},"bbox":[-16.234559,14.824432,-16.20471,14.828598],"geometry":{"type":"MultiLineString","coordinates":[[[-16.234559,14.82807],[-16.233164,14.827942],[-16.230795,14.828023],[-16.228981,14.827626],[-16.227241,14.828042],[-16.224596,14.828598],[-16.222574,14.828541],[-16.219366,14.828151],[-16.217413,14.827755],[-16.215529,14.827494],[-16.213649,14.827707],[-16.212043,14.827105],[-16.210434,14.826097],[-16.208618,14.825361],[-16.206313,14.824491],[-16.20471,14.824432]]]}},{"type":"Feature","properties":{"FNODE_":"0","TNODE_":"0","LPOLY_":"0","RPOLY_":"0","LONGUEUR":1752.639,"ROUTESA3_":"0","ROUTESA3_I":"0","CODE":3.0,"FONCTION":"Route principale"},"bbox":[-16.208144,14.825452,-16.204088,14.840346],"geometry":{"type":"MultiLineString","coordinates":[[[-16.208144,14.840346],[-16.207085,14.837979],[-16.20631,14.836559],[-16.206442,14.835135],[-16.206784,14.83398],[-16.206498,14.832762],[-16.205934,14.831544],[-16.20523,14.830192],[-16.204453,14.828433],[-16.204166,14.826808],[-16.204088,14.825452]]]}},{"type":"Feature","properties":{"FNODE_":"0","TNODE_":"0","LPOLY_":"0","RPOLY_":"0","LONGUEUR":2854.915,"ROUTESA3_":"0","ROUTESA3_I":"0","CODE":7.0,"FONCTION":"Autres pistes"},"bbox":[-16.202569,14.894677,-16.179999,14.907002],"geometry":{"type":"MultiLineString","coordinates":[[[-16.202569,14.894677],[-16.201341,14.89584],[-16.200022,14.896728],[-16.198216,14.898026],[-16.196621,14.899593],[-16.195302,14.900482],[-16.193496,14.901779],[-16.192594,14.90253],[-16.190714,14.902878],[-16.188971,14.902955],[-16.187579,14.903369],[-16.184864,14.904197],[-16.183682,14.904677],[-16.182362,14.905498],[-16.181182,14.906521],[-16.179999,14.907002]]]}},{"type":"Feature","properties":{"FNODE_":"0","TNODE_":"0","LPOLY_":"0","RPOLY_":"0","LONGUEUR":1520.844,"ROUTESA3_":"0","ROUTESA3_I":"0","CODE":7.0,"FONCTION":"Autres pistes"},"bbox":[-16.178954,14.904906,-16.165556,14.907143],"geometry":{"type":"MultiLineString","coordinates":[[[-16.178954,14.907143],[-16.178112,14.90613],[-16.175666,14.905058],[-16.173226,14.90507],[-16.169601,14.905089],[-16.167579,14.905031],[-16.165556,14.904906]]]}},{"type":"Feature","properties":{"FNODE_":"0","TNODE_":"0","LPOLY_":"0","RPOLY_":"0","LONGUEUR":497.0625,"ROUTESA3_":"0","ROUTESA3_I":"0","CODE":7.0,"FONCTION":"Autres pistes"},"bbox":[-16.164367,14.902017,-16.160312,14.904099],"geometry":{"type":"MultiLineString","coordinates":[[[-16.164367,14.904099],[-16.163178,14.903427],[-16.161639,14.902417],[-16.160312,14.902017]]]}},{"type":"Feature","properties":{"FNODE_":"0","TNODE_":"0","LPOLY_":"0","RPOLY_":"0","LONGUEUR":910.9112,"ROUTESA3_":"0","ROUTESA3_I":"0","CODE":7.0,"FONCTION":"Autres pistes"},"bbox":[-16.157802,14.895272,-16.153583,14.901962],"geometry":{"type":"MultiLineString","coordinates":[[[-16.157802,14.901962],[-16.156682,14.90129],[-16.155421,14.900076],[-16.154436,14.898386],[-16.153732,14.897034],[-16.153586,14.895882],[-16.153583,14.895272]]]}},{"type":"Feature","properties":{"FNODE_":"0","TNODE_":"0","LPOLY_":"0","RPOLY_":"0","LONGUEUR":941.9761,"ROUTESA3_":"0","ROUTESA3_I":"0","CODE":7.0,"FONCTION":"Autres pistes"},"bbox":[-16.158781,14.887588,-16.154413,14.894115],"geometry":{"type":"MultiLineString","coordinates":[[[-16.154413,14.894115],[-16.155175,14.89323],[-16.156286,14.892343],[-16.157467,14.891591],[-16.158507,14.890501],[-16.158781,14.88955],[-16.158426,14.888332],[-16.158004,14.887588]]]}},{"type":"Feature","properties":{"FNODE_":"0","TNODE_":"0","LPOLY_":"0","RPOLY_":"0","LONGUEUR":748.5089,"ROUTESA3_":"0","ROUTESA3_I":"0","CODE":7.0,"FONCTION":"Autres pistes"},"bbox":[-16.175632,14.843459,-16.169966,14.847227],"geometry":{"type":"MultiLineString","coordinates":[[[-16.169966,14.843459],[-16.171366,14.844604],[-16.172557,14.845819],[-16.173885,14.846354],[-16.175632,14.847227]]]}},{"type":"Feature","properties":{"FNODE_":"0","TNODE_":"0","LPOLY_":"0","RPOLY_":"0","LONGUEUR":2610.594,"ROUTESA3_":"0","ROUTESA3_I":"0","CODE":4.0,"FONCTION":"Piste automobile"},"bbox":[-16.14909,14.807951,-16.125523,14.810898],"geometry":{"type":"MultiLineString","coordinates":[[[-16.14909,14.810343],[-16.146584,14.810898],[-16.143517,14.81071],[-16.141145,14.810247],[-16.138357,14.810193],[-16.136545,14.810134],[-16.133307,14.810659],[-16.131736,14.810022],[-16.130549,14.809621],[-16.128525,14.809021],[-16.12706,14.808757],[-16.125523,14.807951]]]}},{"type":"Feature","properties":{"FNODE_":"0","TNODE_":"0","LPOLY_":"0","RPOLY_":"0","LONGUEUR":759.0097,"ROUTESA3_":"0","ROUTESA3_I":"0","CODE":7.0,"FONCTION":"Autres pistes"},"bbox":[-16.148438,14.831974,-16.143935,14.837217],"geometry":{"type":"MultiLineString","coordinates":[[[-16.143935,14.837217],[-16.144835,14.835992],[-16.146083,14.834833],[-16.147469,14.833403],[-16.148438,14.831974]]]}},{"type":"Feature","properties":{"FNODE_":"0","TNODE_":"0","LPOLY_":"0","RPOLY_":"0","LONGUEUR":2311.395,"ROUTESA3_":"0","ROUTESA3_I":"0","CODE":7.0,"FONCTION":"Autres pistes"},"bbox":[-16.151292,14.810137,-16.149125,14.83014],"geometry":{"type":"MultiLineString","coordinates":[[[-16.149125,14.83014],[-16.14981,14.827899],[-16.149593,14.826409],[-16.149584,14.824646],[-16.150344,14.823422],[-16.151174,14.822197],[-16.151096,14.820706],[-16.151091,14.819621],[-16.151292,14.818264],[-16.151286,14.817112],[-16.151135,14.814808],[-16.150774,14.812436],[-16.150139,14.811016],[-16.149577,14.810137]]]}},{"type":"Feature","properties":{"FNODE_":"0","TNODE_":"0","LPOLY_":"0","RPOLY_":"0","LONGUEUR":2298.17,"ROUTESA3_":"0","ROUTESA3_I":"0","CODE":4.0,"FONCTION":"Piste automobile"},"bbox":[-16.156297,14.838709,-16.143873,14.855054],"geometry":{"type":"MultiLineString","coordinates":[[[-16.156297,14.855054],[-16.155172,14.853364],[-16.153765,14.850931],[-16.152991,14.849443],[-16.152143,14.847346],[-16.15137,14.846129],[-16.149691,14.844917],[-16.148012,14.843705],[-16.147171,14.842896],[-16.146816,14.841677],[-16.145276,14.840329],[-16.143873,14.838709]]]}},{"type":"Feature","properties":{"FNODE_":"0","TNODE_":"0","LPOLY_":"0","RPOLY_":"0","LONGUEUR":5430.583,"ROUTESA3_":"0","ROUTESA3_I":"0","CODE":3.0,"FONCTION":"Route principale"},"bbox":[-16.20842,14.842246,-16.204661,14.891077],"geometry":{"type":"MultiLineString","coordinates":[[[-16.204661,14.891077],[-16.205469,14.88592],[-16.206197,14.878933],[-16.206319,14.875746],[-16.206858,14.872353],[-16.207251,14.867876],[-16.207241,14.866046],[-16.207787,14.864009],[-16.208314,14.858515],[-16.20842,14.852548],[-16.208034,14.845771],[-16.207945,14.842246]]]}},{"type":"Feature","properties":{"FNODE_":"0","TNODE_":"0","LPOLY_":"0","RPOLY_":"0","LONGUEUR":1091.659,"ROUTESA3_":"0","ROUTESA3_I":"0","CODE":7.0,"FONCTION":"Autres pistes"},"bbox":[-16.218486,14.841493,-16.209195,14.845241],"geometry":{"type":"MultiLineString","coordinates":[[[-16.209195,14.841493],[-16.212546,14.842493],[-16.215618,14.843425],[-16.218486,14.845241]]]}},{"type":"Feature","properties":{"FNODE_":"0","TNODE_":"0","LPOLY_":"0","RPOLY_":"0","LONGUEUR":437.8922,"ROUTESA3_":"0","ROUTESA3_I":"0","CODE":7.0,"FONCTION":"Autres pistes"},"bbox":[-16.22317,14.846185,-16.219467,14.847724],"geometry":{"type":"MultiLineString","coordinates":[[[-16.219467,14.846185],[-16.220515,14.846654],[-16.222054,14.847527],[-16.22317,14.847724]]]}},{"type":"Feature","properties":{"FNODE_":"0","TNODE_":"0","LPOLY_":"0","RPOLY_":"0","LONGUEUR":666.8069,"ROUTESA3_":"0","ROUTESA3_I":"0","CODE":7.0,"FONCTION":"Autres pistes"},"bbox":[-16.230283,14.847769,-16.224147,14.848297],"geometry":{"type":"MultiLineString","coordinates":[[[-16.230283,14.848297],[-16.228957,14.848032],[-16.227492,14.847769],[-16.22561,14.847847],[-16.224147,14.84799]]]}},{"type":"Feature","properties":{"FNODE_":"0","TNODE_":"0","LPOLY_":"0","RPOLY_":"0","LONGUEUR":1226.763,"ROUTESA3_":"0","ROUTESA3_I":"0","CODE":7.0,"FONCTION":"Autres pistes"},"bbox":[-16.197485,14.775305,-16.186601,14.777825],"geometry":{"type":"MultiLineString","coordinates":[[[-16.197485,14.777825],[-16.196854,14.77715],[-16.19511,14.776753],[-16.192808,14.776358],[-16.190855,14.775893],[-16.188622,14.775362],[-16.186601,14.775305]]]}},{"type":"Feature","properties":{"FNODE_":"0","TNODE_":"0","LPOLY_":"0","RPOLY_":"0","LONGUEUR":973.7943,"ROUTESA3_":"0","ROUTESA3_I":"0","CODE":7.0,"FONCTION":"Autres pistes"},"bbox":[-16.184927,14.774779,-16.175942,14.775495],"geometry":{"type":"MultiLineString","coordinates":[[[-16.184927,14.774974],[-16.183324,14.774779],[-16.180328,14.77493],[-16.177264,14.775217],[-16.175942,14.775495]]]}},{"type":"Feature","properties":{"FNODE_":"0","TNODE_":"0","LPOLY_":"0","RPOLY_":"0","LONGUEUR":439.5986,"ROUTESA3_":"0","ROUTESA3_I":"0","CODE":7.0,"FONCTION":"Autres pistes"},"bbox":[-16.176341,14.770952,-16.17531,14.774685],"geometry":{"type":"MultiLineString","coordinates":[[[-16.17531,14.774685],[-16.175859,14.772987],[-16.176341,14.771967],[-16.175987,14.770952]]]}},{"type":"Feature","properties":{"FNODE_":"0","TNODE_":"0","LPOLY_":"0","RPOLY_":"0","LONGUEUR":259.389,"ROUTESA3_":"0","ROUTESA3_I":"0","CODE":7.0,"FONCTION":"Autres pistes"},"bbox":[-16.175841,14.767429,-16.175557,14.769733],"geometry":{"type":"MultiLineString","coordinates":[[[-16.175841,14.769733],[-16.175557,14.768785],[-16.17562,14.767429]]]}},{"type":"Feature","properties":{"FNODE_":"0","TNODE_":"0","LPOLY_":"0","RPOLY_":"0","LONGUEUR":493.7198,"ROUTESA3_":"0","ROUTESA3_I":"0","CODE":7.0,"FONCTION":"Autres pistes"},"bbox":[-16.175132,14.767431,-16.172294,14.770903],"geometry":{"type":"MultiLineString","coordinates":[[[-16.175132,14.767431],[-16.174579,14.768315],[-16.173678,14.769201],[-16.172708,14.770223],[-16.172294,14.770903]]]}},{"type":"Feature","properties":{"FNODE_":"0","TNODE_":"0","LPOLY_":"0","RPOLY_":"0","LONGUEUR":412.3848,"ROUTESA3_":"0","ROUTESA3_I":"0","CODE":7.0,"FONCTION":"Autres pistes"},"bbox":[-16.171529,14.770858,-16.167765,14.771193],"geometry":{"type":"MultiLineString","coordinates":[[[-16.171529,14.771178],[-16.170623,14.771115],[-16.168672,14.771193],[-16.167765,14.770858]]]}},{"type":"Feature","properties":{"FNODE_":"0","TNODE_":"0","LPOLY_":"0","RPOLY_":"0","LONGUEUR":3388.548,"ROUTESA3_":"0","ROUTESA3_I":"0","CODE":7.0,"FONCTION":"Autres pistes"},"bbox":[-16.350714,14.936701,-16.33084,14.95885],"geometry":{"type":"MultiLineString","coordinates":[[[-16.33084,14.95885],[-16.331319,14.957356],[-16.332836,14.954635],[-16.334288,14.952593],[-16.335745,14.9515],[-16.338177,14.95013],[-16.340465,14.947947],[-16.341225,14.946926],[-16.34282,14.945493],[-16.344979,14.945073],[-16.346713,14.943639],[-16.348239,14.942207],[-16.348991,14.939897],[-16.350097,14.938332],[-16.350714,14.936701]]]}},{"type":"Feature","properties":{"FNODE_":"0","TNODE_":"0","LPOLY_":"0","RPOLY_":"0","LONGUEUR":1783.376,"ROUTESA3_":"0","ROUTESA3_I":"0","CODE":7.0,"FONCTION":"Autres pistes"},"bbox":[-16.351126,14.928309,-16.336717,14.935682],"geometry":{"type":"MultiLineString","coordinates":[[[-16.336717,14.928309],[-16.337981,14.929725],[-16.340503,14.931676],[-16.344209,14.933282],[-16.346305,14.934083],[-16.347984,14.934887],[-16.351126,14.935682]]]}},{"type":"Feature","properties":{"FNODE_":"0","TNODE_":"0","LPOLY_":"0","RPOLY_":"0","LONGUEUR":2826.417,"ROUTESA3_":"0","ROUTESA3_I":"0","CODE":7.0,"FONCTION":"Autres pistes"},"bbox":[-16.352343,14.907269,-16.33669,14.926478],"geometry":{"type":"MultiLineString","coordinates":[[[-16.336776,14.926478],[-16.33669,14.923903],[-16.338483,14.920706],[-16.343047,14.914645],[-16.345335,14.912666],[-16.348592,14.90946],[-16.350465,14.90789],[-16.352343,14.907269]]]}},{"type":"Feature","properties":{"FNODE_":"0","TNODE_":"0","LPOLY_":"0","RPOLY_":"0","LONGUEUR":778.4908,"ROUTESA3_":"0","ROUTESA3_I":"0","CODE":7.0,"FONCTION":"Autres pistes"},"bbox":[-16.342343,14.902243,-16.34154,14.909161],"geometry":{"type":"MultiLineString","coordinates":[[[-16.341897,14.909161],[-16.34154,14.907671],[-16.34174,14.906179],[-16.342284,14.904074],[-16.342343,14.902243]]]}},{"type":"Feature","properties":{"FNODE_":"0","TNODE_":"0","LPOLY_":"0","RPOLY_":"0","LONGUEUR":466.6564,"ROUTESA3_":"0","ROUTESA3_I":"0","CODE":7.0,"FONCTION":"Autres pistes"},"bbox":[-16.34559,14.897479,-16.3431,14.90068],"geometry":{"type":"MultiLineString","coordinates":[[[-16.3431,14.90068],[-16.3442,14.898233],[-16.34559,14.897479]]]}},{"type":"Feature","properties":{"FNODE_":"0","TNODE_":"0","LPOLY_":"0","RPOLY_":"0","LONGUEUR":4058.843,"ROUTESA3_":"0","ROUTESA3_I":"0","CODE":7.0,"FONCTION":"Autres pistes"},"bbox":[-16.372522,14.908011,-16.353045,14.916107],"geometry":{"type":"MultiLineString","coordinates":[[[-16.353045,14.908011],[-16.358783,14.911434],[-16.363193,14.914323],[-16.367666,14.915991],[-16.372522,14.916107]]]}},{"type":"Feature","properties":{"FNODE_":"0","TNODE_":"0","LPOLY_":"0","RPOLY_":"0","LONGUEUR":0.0,"ROUTESA3_":"0","ROUTESA3_I":"0","CODE":7.0,"FONCTION":"Autres pistes"},"bbox":[-16.366033,14.848182,-16.232003,14.85259],"geometry":{"type":"MultiLineString","coordinates":[[[-16.366033,14.851439],[-16.358655,14.852012],[-16.350912,14.852417],[-16.341692,14.85259],[-16.330749,14.852295],[-16.323493,14.851859],[-16.319434,14.851643],[-16.317219,14.851297],[-16.315863,14.850707],[-16.313278,14.850124],[-16.307743,14.849557],[-16.289922,14.850615],[-16.283407,14.850651],[-16.273324,14.850468],[-16.262991,14.849329],[-16.238029,14.848508],[-16.232003,14.848182]]]}},{"type":"Feature","properties":{"FNODE_":"0","TNODE_":"0","LPOLY_":"0","RPOLY_":"0","LONGUEUR":0.0,"ROUTESA3_":"0","ROUTESA3_I":"0","CODE":7.0,"FONCTION":"Autres pistes"},"bbox":[-16.298782,14.79591,-16.251522,14.806575],"geometry":{"type":"MultiLineString","coordinates":[[[-16.251522,14.806575],[-16.25631,14.805593],[-16.261464,14.80401],[-16.270554,14.803003],[-16.278414,14.802003],[-16.289088,14.798595],[-16.296575,14.79676],[-16.298782,14.79591]]]}},{"type":"Feature","properties":{"FNODE_":"0","TNODE_":"0","LPOLY_":"0","RPOLY_":"0","LONGUEUR":0.0,"ROUTESA3_":"0","ROUTESA3_I":"0","CODE":7.0,"FONCTION":"Autres pistes"},"bbox":[-16.353121,14.790215,-16.301847,14.794975],"geometry":{"type":"MultiLineString","coordinates":[[[-16.301847,14.794577],[-16.30922,14.794416],[-16.315984,14.794975],[-16.328878,14.793108],[-16.342143,14.791715],[-16.353121,14.790215]]]}},{"type":"Feature","properties":{"FNODE_":"0","TNODE_":"0","LPOLY_":"0","RPOLY_":"0","LONGUEUR":0.0,"ROUTESA3_":"0","ROUTESA3_I":"0","CODE":7.0,"FONCTION":"Autres pistes"},"bbox":[-16.319026,14.749427,-16.310926,14.750998],"geometry":{"type":"MultiLineString","coordinates":[[[-16.319026,14.749427],[-16.314242,14.75062],[-16.310926,14.750998]]]}},{"type":"Feature","properties":{"FNODE_":"0","TNODE_":"0","LPOLY_":"0","RPOLY_":"0","LONGUEUR":0.0,"ROUTESA3_":"0","ROUTESA3_I":"0","CODE":7.0,"FONCTION":"Autres pistes"},"bbox":[-16.307127,14.752693,-16.289492,14.762957],"geometry":{"type":"MultiLineString","coordinates":[[[-16.307127,14.752693],[-16.303944,14.754625],[-16.29904,14.756566],[-16.293643,14.75827],[-16.291689,14.760433],[-16.289492,14.762957]]]}},{"type":"Feature","properties":{"FNODE_":"0","TNODE_":"0","LPOLY_":"0","RPOLY_":"0","LONGUEUR":0.0,"ROUTESA3_":"0","ROUTESA3_I":"0","CODE":7.0,"FONCTION":"Autres pistes"},"bbox":[-16.288269,14.762686,-16.251762,14.767736],"geometry":{"type":"MultiLineString","coordinates":[[[-16.288269,14.763921],[-16.285819,14.76525],[-16.283609,14.76574],[-16.28054,14.766236],[-16.27821,14.767086],[-16.276001,14.767576],[-16.272069,14.767717],[-16.268628,14.767736],[-16.266291,14.76739],[-16.263216,14.766929],[-16.259402,14.766232],[-16.257187,14.765766],[-16.25497,14.764821],[-16.251886,14.762805],[-16.251762,14.762686]]]}},{"type":"Feature","properties":{"FNODE_":"0","TNODE_":"0","LPOLY_":"0","RPOLY_":"0","LONGUEUR":0.0,"ROUTESA3_":"0","ROUTESA3_I":"0","CODE":7.0,"FONCTION":"Autres pistes"},"bbox":[-16.248688,14.802386,-16.230111,14.805395],"geometry":{"type":"MultiLineString","coordinates":[[[-16.248688,14.805395],[-16.241185,14.804479],[-16.236137,14.802951],[-16.230111,14.802386]]]}},{"type":"Feature","properties":{"FNODE_":"0","TNODE_":"0","LPOLY_":"0","RPOLY_":"0","LONGUEUR":0.0,"ROUTESA3_":"0","ROUTESA3_I":"0","CODE":7.0,"FONCTION":"Autres pistes"},"bbox":[-16.226295,14.792324,-16.210511,14.801449],"geometry":{"type":"MultiLineString","coordinates":[[[-16.226295,14.801449],[-16.222974,14.800988],[-16.217184,14.798747],[-16.215584,14.798397],[-16.213361,14.796495],[-16.212122,14.794708],[-16.210511,14.792324]]]}},{"type":"Feature","properties":{"FNODE_":"0","TNODE_":"0","LPOLY_":"0","RPOLY_":"0","LONGUEUR":0.0,"ROUTESA3_":"0","ROUTESA3_I":"0","CODE":7.0,"FONCTION":"Autres pistes"},"bbox":[-16.290658,14.71213,-16.277803,14.718417],"geometry":{"type":"MultiLineString","coordinates":[[[-16.290658,14.71213],[-16.286866,14.713464],[-16.284908,14.71479],[-16.283198,14.716474],[-16.277803,14.718417]]]}},{"type":"Feature","properties":{"FNODE_":"0","TNODE_":"0","LPOLY_":"0","RPOLY_":"0","LONGUEUR":0.0,"ROUTESA3_":"0","ROUTESA3_I":"0","CODE":7.0,"FONCTION":"Autres pistes"},"bbox":[-16.250477,14.727327,-16.222193,14.731362],"geometry":{"type":"MultiLineString","coordinates":[[[-16.222193,14.727327],[-16.223924,14.729112],[-16.229456,14.72968],[-16.244818,14.730196],[-16.250477,14.731362]]]}},{"type":"Feature","properties":{"FNODE_":"0","TNODE_":"0","LPOLY_":"0","RPOLY_":"0","LONGUEUR":0.0,"ROUTESA3_":"0","ROUTESA3_I":"0","CODE":7.0,"FONCTION":"Autres pistes"},"bbox":[-16.293033,14.729011,-16.251955,14.732647],"geometry":{"type":"MultiLineString","coordinates":[[[-16.251955,14.731952],[-16.256014,14.732647],[-16.263621,14.730692],[-16.281183,14.729161],[-16.286712,14.729011],[-16.293033,14.729122]]]}},{"type":"Feature","properties":{"FNODE_":"0","TNODE_":"0","LPOLY_":"0","RPOLY_":"0","LONGUEUR":0.0,"ROUTESA3_":"0","ROUTESA3_I":"0","CODE":7.0,"FONCTION":"Autres pistes"},"bbox":[-16.21875,14.726078,-16.169238,14.728199],"geometry":{"type":"MultiLineString","coordinates":[[[-16.21875,14.726867],[-16.215676,14.726524],[-16.209653,14.726078],[-16.20609,14.726096],[-16.203757,14.726347],[-16.200812,14.7272],[-16.199216,14.727328],[-16.192579,14.727123],[-16.18828,14.727384],[-16.184841,14.727641],[-16.182874,14.727412],[-16.181032,14.72778],[-16.176731,14.727563],[-16.171323,14.727471],[-16.169238,14.728199]]]}},{"type":"Feature","properties":{"FNODE_":"0","TNODE_":"0","LPOLY_":"0","RPOLY_":"0","LONGUEUR":0.0,"ROUTESA3_":"0","ROUTESA3_I":"0","CODE":7.0,"FONCTION":"Autres pistes"},"bbox":[-16.220211,14.718702,-16.202117,14.724468],"geometry":{"type":"MultiLineString","coordinates":[[[-16.220211,14.724468],[-16.215408,14.72234],[-16.210117,14.721052],[-16.207166,14.720709],[-16.202117,14.718702]]]}},{"type":"Feature","properties":{"FNODE_":"0","TNODE_":"0","LPOLY_":"0","RPOLY_":"0","LONGUEUR":0.0,"ROUTESA3_":"0","ROUTESA3_I":"0","CODE":7.0,"FONCTION":"Autres pistes"},"bbox":[-16.200395,14.715646,-16.19178,14.718233],"geometry":{"type":"MultiLineString","coordinates":[[[-16.200395,14.718233],[-16.198305,14.718005],[-16.19178,14.715646]]]}},{"type":"Feature","properties":{"FNODE_":"0","TNODE_":"0","LPOLY_":"0","RPOLY_":"0","LONGUEUR":0.0,"ROUTESA3_":"0","ROUTESA3_I":"0","CODE":7.0,"FONCTION":"Autres pistes"},"bbox":[-16.189321,14.708531,-16.156356,14.71542],"geometry":{"type":"MultiLineString","coordinates":[[[-16.189321,14.71542],[-16.187477,14.71519],[-16.181697,14.714263],[-16.176903,14.713809],[-16.172846,14.713471],[-16.165714,14.712431],[-16.162884,14.711608],[-16.159685,14.710787],[-16.156356,14.708531]]]}},{"type":"Feature","properties":{"FNODE_":"0","TNODE_":"0","LPOLY_":"0","RPOLY_":"0","LONGUEUR":0.0,"ROUTESA3_":"0","ROUTESA3_I":"0","CODE":7.0,"FONCTION":"Autres pistes"},"bbox":[-16.167029,14.728568,-16.115963,14.738746],"geometry":{"type":"MultiLineString","coordinates":[[[-16.167029,14.728568],[-16.164574,14.729059],[-16.162488,14.729668],[-16.156959,14.729695],[-16.153524,14.730789],[-16.147877,14.731893],[-16.140026,14.734443],[-16.132534,14.735198],[-16.128118,14.736654],[-16.121612,14.738001],[-16.115963,14.738746]]]}},{"type":"Feature","properties":{"FNODE_":"0","TNODE_":"0","LPOLY_":"0","RPOLY_":"0","LONGUEUR":0.0,"ROUTESA3_":"0","ROUTESA3_I":"0","CODE":7.0,"FONCTION":"Autres pistes"},"bbox":[-16.107374,14.741299,-16.102712,14.742876],"geometry":{"type":"MultiLineString","coordinates":[[[-16.107374,14.741299],[-16.104675,14.742149],[-16.102712,14.742876]]]}},{"type":"Feature","properties":{"FNODE_":"0","TNODE_":"0","LPOLY_":"0","RPOLY_":"0","LONGUEUR":0.0,"ROUTESA3_":"0","ROUTESA3_I":"0","CODE":7.0,"FONCTION":"Autres pistes"},"bbox":[-16.100992,14.741359,-16.094717,14.742884],"geometry":{"type":"MultiLineString","coordinates":[[[-16.100992,14.742884],[-16.098532,14.742417],[-16.096561,14.74159],[-16.094717,14.741359]]]}},{"type":"Feature","properties":{"FNODE_":"0","TNODE_":"0","LPOLY_":"0","RPOLY_":"0","LONGUEUR":0.0,"ROUTESA3_":"0","ROUTESA3_I":"0","CODE":7.0,"FONCTION":"Autres pistes"},"bbox":[-16.110435,14.742125,-16.104375,14.78018],"geometry":{"type":"MultiLineString","coordinates":[[[-16.109713,14.742125],[-16.110111,14.747863],[-16.110435,14.763409],[-16.110347,14.770226],[-16.108652,14.775257],[-16.104375,14.78018]]]}},{"type":"Feature","properties":{"FNODE_":"0","TNODE_":"0","LPOLY_":"0","RPOLY_":"0","LONGUEUR":0.0,"ROUTESA3_":"0","ROUTESA3_I":"0","CODE":7.0,"FONCTION":"Autres pistes"},"bbox":[-16.14072,14.741627,-16.113766,14.749747],"geometry":{"type":"MultiLineString","coordinates":[[[-16.113766,14.741627],[-16.11967,14.742794],[-16.127664,14.744071],[-16.134915,14.744036],[-16.137379,14.745339],[-16.14072,14.749747]]]}},{"type":"Feature","properties":{"FNODE_":"0","TNODE_":"0","LPOLY_":"0","RPOLY_":"0","LONGUEUR":0.0,"ROUTESA3_":"0","ROUTESA3_I":"0","CODE":7.0,"FONCTION":"Autres pistes"},"bbox":[-16.139744,14.751068,-16.108029,14.773705],"geometry":{"type":"MultiLineString","coordinates":[[[-16.139744,14.751068],[-16.130196,14.75829],[-16.12248,14.76347],[-16.111826,14.771056],[-16.108029,14.773705]]]}},{"type":"Feature","properties":{"FNODE_":"0","TNODE_":"0","LPOLY_":"0","RPOLY_":"0","LONGUEUR":0.0,"ROUTESA3_":"0","ROUTESA3_I":"0","CODE":7.0,"FONCTION":"Autres pistes"},"bbox":[-16.218386,14.727586,-16.206595,14.728932],"geometry":{"type":"MultiLineString","coordinates":[[[-16.218386,14.727586],[-16.212741,14.728932],[-16.208685,14.728714],[-16.206595,14.728485]]]}},{"type":"Feature","properties":{"FNODE_":"0","TNODE_":"0","LPOLY_":"0","RPOLY_":"0","LONGUEUR":0.0,"ROUTESA3_":"0","ROUTESA3_I":"0","CODE":7.0,"FONCTION":"Autres pistes"},"bbox":[-16.204382,14.728377,-16.192248,14.734061],"geometry":{"type":"MultiLineString","coordinates":[[[-16.204382,14.728377],[-16.201927,14.728868],[-16.199602,14.730555],[-16.195798,14.731531],[-16.193469,14.7325],[-16.192248,14.734061]]]}},{"type":"Feature","properties":{"FNODE_":"0","TNODE_":"0","LPOLY_":"0","RPOLY_":"0","LONGUEUR":0.0,"ROUTESA3_":"0","ROUTESA3_I":"0","CODE":7.0,"FONCTION":"Autres pistes"},"bbox":[-16.191685,14.735381,-16.185957,14.774992],"geometry":{"type":"MultiLineString","coordinates":[[[-16.191395,14.735381],[-16.191685,14.743511],[-16.190477,14.747344],[-16.188703,14.76003],[-16.187738,14.763383],[-16.186424,14.770326],[-16.185957,14.774992]]]}},{"type":"Feature","properties":{"FNODE_":"0","TNODE_":"0","LPOLY_":"0","RPOLY_":"0","LONGUEUR":0.0,"ROUTESA3_":"0","ROUTESA3_I":"0","CODE":7.0,"FONCTION":"Autres pistes"},"bbox":[-16.207182,14.778271,-16.199372,14.790428],"geometry":{"type":"MultiLineString","coordinates":[[[-16.207182,14.790428],[-16.205576,14.789002],[-16.203459,14.78399],[-16.20074,14.781134],[-16.200236,14.778984],[-16.199372,14.778271]]]}},{"type":"Feature","properties":{"FNODE_":"0","TNODE_":"0","LPOLY_":"0","RPOLY_":"0","LONGUEUR":0.0,"ROUTESA3_":"0","ROUTESA3_I":"0","CODE":7.0,"FONCTION":"Autres pistes"},"bbox":[-16.166026,14.762649,-16.143614,14.771028],"geometry":{"type":"MultiLineString","coordinates":[[[-16.166026,14.771028],[-16.163072,14.770205],[-16.161221,14.76878],[-16.159491,14.767114],[-16.154811,14.765105],[-16.15321,14.764515],[-16.150379,14.763692],[-16.146197,14.762995],[-16.143614,14.762649]]]}},{"type":"Feature","properties":{"FNODE_":"0","TNODE_":"0","LPOLY_":"0","RPOLY_":"0","LONGUEUR":0.0,"ROUTESA3_":"0","ROUTESA3_I":"0","CODE":7.0,"FONCTION":"Autres pistes"},"bbox":[-16.151075,14.763372,-16.142512,14.80782],"geometry":{"type":"MultiLineString","coordinates":[[[-16.150365,14.80782],[-16.151075,14.802435],[-16.150927,14.797772],[-16.150766,14.790597],[-16.150496,14.785935],[-16.148865,14.779605],[-16.144998,14.768861],[-16.142512,14.763372]]]}},{"type":"Feature","properties":{"FNODE_":"0","TNODE_":"0","LPOLY_":"0","RPOLY_":"0","LONGUEUR":0.0,"ROUTESA3_":"0","ROUTESA3_I":"0","CODE":7.0,"FONCTION":"Autres pistes"},"bbox":[-16.14222,14.751297,-16.141383,14.758953],"geometry":{"type":"MultiLineString","coordinates":[[[-16.141383,14.758953],[-16.14222,14.754643],[-16.141711,14.751297]]]}},{"type":"Feature","properties":{"FNODE_":"0","TNODE_":"0","LPOLY_":"0","RPOLY_":"0","LONGUEUR":0.0,"ROUTESA3_":"0","ROUTESA3_I":"0","CODE":7.0,"FONCTION":"Autres pistes"},"bbox":[-16.3699,14.889575,-16.355343,14.905027],"geometry":{"type":"MultiLineString","coordinates":[[[-16.355343,14.905027],[-16.356926,14.902506],[-16.360221,14.89854],[-16.363155,14.895773],[-16.3699,14.889575]]]}},{"type":"Feature","properties":{"FNODE_":"0","TNODE_":"0","LPOLY_":"0","RPOLY_":"0","LONGUEUR":0.0,"ROUTESA3_":"0","ROUTESA3_I":"0","CODE":7.0,"FONCTION":"Autres pistes"},"bbox":[-16.346811,14.859427,-16.341657,14.896831],"geometry":{"type":"MultiLineString","coordinates":[[[-16.345947,14.896831],[-16.345686,14.894441],[-16.345657,14.889777],[-16.346237,14.884154],[-16.346811,14.877573],[-16.345908,14.870882],[-16.345035,14.868735],[-16.34329,14.865038],[-16.341924,14.862774],[-16.341657,14.859427]]]}},{"type":"Feature","properties":{"FNODE_":"0","TNODE_":"0","LPOLY_":"0","RPOLY_":"0","LONGUEUR":0.0,"ROUTESA3_":"0","ROUTESA3_I":"0","CODE":7.0,"FONCTION":"Autres pistes"},"bbox":[-16.34228,14.877958,-16.321853,14.90044],"geometry":{"type":"MultiLineString","coordinates":[[[-16.34228,14.90044],[-16.341033,14.897697],[-16.338561,14.895559],[-16.335726,14.894499],[-16.332768,14.893321],[-16.32931,14.890949],[-16.327193,14.886537],[-16.323711,14.880099],[-16.321853,14.877958]]]}},{"type":"Feature","properties":{"FNODE_":"0","TNODE_":"0","LPOLY_":"0","RPOLY_":"0","LONGUEUR":0.0,"ROUTESA3_":"0","ROUTESA3_I":"0","CODE":7.0,"FONCTION":"Autres pistes"},"bbox":[-16.320125,14.873702,-16.308918,14.876772],"geometry":{"type":"MultiLineString","coordinates":[[[-16.320125,14.876772],[-16.317653,14.874753],[-16.313221,14.873702],[-16.310271,14.873958],[-16.308918,14.873846]]]}},{"type":"Feature","properties":{"FNODE_":"0","TNODE_":"0","LPOLY_":"0","RPOLY_":"0","LONGUEUR":0.0,"ROUTESA3_":"0","ROUTESA3_I":"0","CODE":7.0,"FONCTION":"Autres pistes"},"bbox":[-16.320136,14.875404,-16.308436,14.898894],"geometry":{"type":"MultiLineString","coordinates":[[[-16.320136,14.898894],[-16.316642,14.890424],[-16.314277,14.885774],[-16.312528,14.88124],[-16.308436,14.875404]]]}},{"type":"Feature","properties":{"FNODE_":"0","TNODE_":"0","LPOLY_":"0","RPOLY_":"0","LONGUEUR":0.0,"ROUTESA3_":"0","ROUTESA3_I":"0","CODE":7.0,"FONCTION":"Autres pistes"},"bbox":[-16.341547,14.900445,-16.320884,14.90207],"geometry":{"type":"MultiLineString","coordinates":[[[-16.341547,14.901281],[-16.336753,14.901429],[-16.329378,14.90207],[-16.323471,14.901267],[-16.320884,14.900445]]]}},{"type":"Feature","properties":{"FNODE_":"0","TNODE_":"0","LPOLY_":"0","RPOLY_":"0","LONGUEUR":0.0,"ROUTESA3_":"0","ROUTESA3_I":"0","CODE":7.0,"FONCTION":"Autres pistes"},"bbox":[-16.341033,14.844855,-16.33874,14.857876],"geometry":{"type":"MultiLineString","coordinates":[[[-16.341033,14.857876],[-16.340396,14.854173],[-16.340379,14.851423],[-16.339377,14.848439],[-16.33874,14.844855]]]}},{"type":"Feature","properties":{"FNODE_":"0","TNODE_":"0","LPOLY_":"0","RPOLY_":"0","LONGUEUR":0.0,"ROUTESA3_":"0","ROUTESA3_I":"0","CODE":7.0,"FONCTION":"Autres pistes"},"bbox":[-16.366732,14.856192,-16.342629,14.857508],"geometry":{"type":"MultiLineString","coordinates":[[[-16.366732,14.856192],[-16.362295,14.856795],[-16.356394,14.85683],[-16.349388,14.85711],[-16.345823,14.857011],[-16.342629,14.857508]]]}},{"type":"Feature","properties":{"FNODE_":"0","TNODE_":"0","LPOLY_":"0","RPOLY_":"0","LONGUEUR":0.0,"ROUTESA3_":"0","ROUTESA3_I":"0","CODE":7.0,"FONCTION":"Autres pistes"},"bbox":[-16.367326,14.860452,-16.308171,14.872296],"geometry":{"type":"MultiLineString","coordinates":[[[-16.367326,14.860452],[-16.363065,14.861812],[-16.35202,14.865106],[-16.346372,14.866335],[-16.335437,14.867475],[-16.325236,14.868133],[-16.320698,14.869952],[-16.319353,14.871156],[-16.31407,14.871904],[-16.308171,14.872296]]]}},{"type":"Feature","properties":{"FNODE_":"0","TNODE_":"0","LPOLY_":"0","RPOLY_":"0","LONGUEUR":0.0,"ROUTESA3_":"0","ROUTESA3_I":"0","CODE":4.0,"FONCTION":"Piste automobile"},"bbox":[-16.305965,14.871551,-16.248535,14.874016],"geometry":{"type":"MultiLineString","coordinates":[[[-16.305965,14.873505],[-16.298465,14.873547],[-16.285309,14.873502],[-16.278918,14.874016],[-16.271784,14.873577],[-16.265757,14.873252],[-16.257761,14.872458],[-16.252716,14.871888],[-16.248535,14.871791],[-16.24878,14.871551]]]}},{"type":"Feature","properties":{"FNODE_":"0","TNODE_":"0","LPOLY_":"0","RPOLY_":"0","LONGUEUR":0.0,"ROUTESA3_":"0","ROUTESA3_I":"0","CODE":4.0,"FONCTION":"Piste automobile"},"bbox":[-16.247796,14.871556,-16.205494,14.89271],"geometry":{"type":"MultiLineString","coordinates":[[[-16.247796,14.871556],[-16.242017,14.871587],[-16.23883,14.873279],[-16.232083,14.876066],[-16.225104,14.881245],[-16.221179,14.88294],[-16.216647,14.886074],[-16.211016,14.890648],[-16.208073,14.892218],[-16.205494,14.89271]]]}},{"type":"Feature","properties":{"FNODE_":"0","TNODE_":"0","LPOLY_":"0","RPOLY_":"0","LONGUEUR":0.0,"ROUTESA3_":"0","ROUTESA3_I":"0","CODE":4.0,"FONCTION":"Piste automobile"},"bbox":[-16.142995,14.838399,-16.118831,14.858465],"geometry":{"type":"MultiLineString","coordinates":[[[-16.118831,14.858465],[-16.120858,14.856016],[-16.142995,14.838399]]]}},{"type":"Feature","properties":{"FNODE_":"0","TNODE_":"0","LPOLY_":"0","RPOLY_":"0","LONGUEUR":0.0,"ROUTESA3_":"0","ROUTESA3_I":"0","CODE":4.0,"FONCTION":"Piste automobile"},"bbox":[-16.203795,14.856408,-16.15745,14.89525],"geometry":{"type":"MultiLineString","coordinates":[[[-16.15745,14.856408],[-16.164769,14.864025],[-16.169819,14.870122],[-16.172989,14.874315],[-16.177353,14.880799],[-16.188123,14.88964],[-16.194844,14.89525],[-16.203795,14.895107]]]}},{"type":"Feature","properties":{"FNODE_":"0","TNODE_":"0","LPOLY_":"0","RPOLY_":"0","LONGUEUR":0.0,"ROUTESA3_":"0","ROUTESA3_I":"0","CODE":3.0,"FONCTION":"Route principale"},"bbox":[-16.20912,14.791278,-16.20089,14.824697],"geometry":{"type":"MultiLineString","coordinates":[[[-16.203307,14.824697],[-16.201412,14.82002],[-16.20089,14.814473],[-16.200957,14.808733],[-16.20912,14.791278]]]}},{"type":"Feature","properties":{"FNODE_":"0","TNODE_":"0","LPOLY_":"0","RPOLY_":"0","LONGUEUR":0.0,"ROUTESA3_":"0","ROUTESA3_I":"0","CODE":4.0,"FONCTION":"Piste automobile"},"bbox":[-16.332706,14.758796,-16.222219,14.882573],"geometry":{"type":"MultiLineString","coordinates":[[[-16.222219,14.882573],[-16.230821,14.872865],[-16.241795,14.865343],[-16.246707,14.86436],[-16.25347,14.860305],[-16.261461,14.847442],[-16.265072,14.842543],[-16.282051,14.819872],[-16.294463,14.806887],[-16.300449,14.804844],[-16.300001,14.795663],[-16.30955,14.781163],[-16.314931,14.776732],[-16.318808,14.76743],[-16.323392,14.761377],[-16.332706,14.758796]]]}},{"type":"Feature","properties":{"FNODE_":"0","TNODE_":"0","LPOLY_":"0","RPOLY_":"0","LONGUEUR":0.0,"ROUTESA3_":"0","ROUTESA3_I":"0","CODE":4.0,"FONCTION":"Piste automobile"},"bbox":[-16.205717,14.645666,-16.100458,14.666475],"geometry":{"type":"MultiLineString","coordinates":[[[-16.205717,14.666475],[-16.197131,14.659847],[-16.189873,14.653283],[-16.182411,14.649948],[-16.170536,14.648214],[-16.165226,14.64738],[-16.162724,14.64811],[-16.158449,14.648131],[-16.148937,14.647102],[-16.140752,14.646353],[-16.134558,14.645666],[-16.130808,14.647478],[-16.121915,14.652257],[-16.119412,14.652771],[-16.113439,14.652298],[-16.106429,14.650537],[-16.100458,14.650422]]]}},{"type":"Feature","properties":{"FNODE_":"0","TNODE_":"0","LPOLY_":"0","RPOLY_":"0","LONGUEUR":4631.37959,"ROUTESA3_":"0","ROUTESA3_I":"0","CODE":4.0,"FONCTION":"Piste automobile"},"bbox":[-16.117014,14.646821,-16.075964,14.656257],"geometry":{"type":"MultiLineString","coordinates":[[[-16.117014,14.656257],[-16.114848,14.654844],[-16.109413,14.654192],[-16.106278,14.653867],[-16.102997,14.652324],[-16.100968,14.650503],[-16.099016,14.650105],[-16.095533,14.649918],[-16.090935,14.649601],[-16.087242,14.649008],[-16.083618,14.648414],[-16.080479,14.64748],[-16.076367,14.646821],[-16.075964,14.646831]]]}},{"type":"Feature","properties":{"FNODE_":"0","TNODE_":"0","LPOLY_":"0","RPOLY_":"0","LONGUEUR":1174.89577,"ROUTESA3_":"0","ROUTESA3_I":"0","CODE":7.0,"FONCTION":"Autres pistes"},"bbox":[-16.075964,14.646831,-16.071834,14.647011],"geometry":{"type":"MultiLineString","coordinates":[[[-16.075964,14.646831],[-16.073095,14.646904],[-16.071834,14.647011]]]}},{"type":"Feature","properties":{"FNODE_":"0","TNODE_":"0","LPOLY_":"0","RPOLY_":"0","LONGUEUR":9042.54289,"ROUTESA3_":"0","ROUTESA3_I":"0","CODE":4.0,"FONCTION":"Piste automobile"},"bbox":[-16.076193,14.630555,-16.050714,14.646876],"geometry":{"type":"MultiLineString","coordinates":[[[-16.076193,14.646876],[-16.073074,14.641939],[-16.070772,14.638434],[-16.069071,14.637222],[-16.065528,14.63609],[-16.060213,14.634248],[-16.0563,14.632831],[-16.053416,14.630835],[-16.050714,14.630555]]]}},{"type":"Feature","properties":{"FNODE_":"0","TNODE_":"0","LPOLY_":"0","RPOLY_":"0","LONGUEUR":0.0,"ROUTESA3_":"0","ROUTESA3_I":"0","CODE":7.0,"FONCTION":"Autres pistes"},"bbox":[-16.120224,14.558345,-16.055465,14.59919],"geometry":{"type":"MultiLineString","coordinates":[[[-16.055465,14.59919],[-16.05596,14.598798],[-16.061182,14.595667],[-16.068685,14.591178],[-16.083085,14.581791],[-16.091483,14.576008],[-16.095854,14.571356],[-16.097951,14.569529],[-16.102636,14.567632],[-16.106541,14.566206],[-16.108822,14.564906],[-16.113928,14.563123],[-16.118188,14.560524],[-16.120224,14.558345]]]}},{"type":"Feature","properties":{"FNODE_":"0","TNODE_":"0","LPOLY_":"0","RPOLY_":"0","LONGUEUR":0.0,"ROUTESA3_":"0","ROUTESA3_I":"0","CODE":7.0,"FONCTION":"Autres pistes"},"bbox":[-16.163611,14.566472,-16.153614,14.569095],"geometry":{"type":"MultiLineString","coordinates":[[[-16.153614,14.567855],[-16.156501,14.567489],[-16.160528,14.566472],[-16.163611,14.569095]]]}},{"type":"Feature","properties":{"FNODE_":"0","TNODE_":"0","LPOLY_":"0","RPOLY_":"0","LONGUEUR":3763.83745,"ROUTESA3_":"0","ROUTESA3_I":"0","CODE":7.0,"FONCTION":"Autres pistes"},"bbox":[-16.153565,14.557521,-16.121002,14.567802],"geometry":{"type":"MultiLineString","coordinates":[[[-16.121002,14.557521],[-16.12919,14.558126],[-16.135636,14.559443],[-16.139859,14.561357],[-16.143293,14.562219],[-16.145643,14.562618],[-16.150775,14.565876],[-16.153565,14.567802]]]}},{"type":"Feature","properties":{"FNODE_":"0","TNODE_":"0","LPOLY_":"0","RPOLY_":"0","LONGUEUR":2947.46552,"ROUTESA3_":"0","ROUTESA3_I":"0","CODE":7.0,"FONCTION":"Autres pistes"},"bbox":[-16.173256,14.567802,-16.153565,14.583349],"geometry":{"type":"MultiLineString","coordinates":[[[-16.153565,14.567802],[-16.154399,14.568378],[-16.155427,14.569194],[-16.156039,14.571301],[-16.156887,14.572352],[-16.157555,14.573404],[-16.157501,14.574694],[-16.15811,14.57598],[-16.160941,14.576376],[-16.165522,14.577761],[-16.169936,14.581549],[-16.173256,14.583349]]]}},{"type":"Feature","properties":{"FNODE_":"0","TNODE_":"0","LPOLY_":"0","RPOLY_":"0","LONGUEUR":0.0,"ROUTESA3_":"0","ROUTESA3_I":"0","CODE":7.0,"FONCTION":"Autres pistes"},"bbox":[-16.147839,14.591564,-16.051592,14.618391],"geometry":{"type":"MultiLineString","coordinates":[[[-16.147839,14.591564],[-16.145564,14.594038],[-16.144787,14.595038],[-16.143345,14.595631],[-16.14178,14.59558],[-16.138414,14.596417],[-16.135166,14.597019],[-16.131131,14.596453],[-16.127287,14.59823],[-16.122905,14.600478],[-16.118823,14.602784],[-16.115216,14.603739],[-16.111076,14.606338],[-16.106444,14.607064],[-16.105361,14.607186],[-16.10044,14.610081],[-16.092992,14.613399],[-16.08878,14.613829],[-16.080061,14.615804],[-16.077598,14.616929],[-16.071584,14.618188],[-16.066586,14.617801],[-16.059662,14.617539],[-16.052863,14.618273],[-16.051592,14.618391]]]}},{"type":"Feature","properties":{"FNODE_":"0","TNODE_":"0","LPOLY_":"0","RPOLY_":"0","LONGUEUR":0.0,"ROUTESA3_":"0","ROUTESA3_I":"0","CODE":7.0,"FONCTION":"Autres pistes"},"bbox":[-16.259553,14.648057,-16.253376,14.650386],"geometry":{"type":"MultiLineString","coordinates":[[[-16.253376,14.650386],[-16.25749,14.648164],[-16.259553,14.648057]]]}},{"type":"Feature","properties":{"FNODE_":"0","TNODE_":"0","LPOLY_":"0","RPOLY_":"0","LONGUEUR":0.0,"ROUTESA3_":"0","ROUTESA3_I":"0","CODE":7.0,"FONCTION":"Autres pistes"},"bbox":[-16.284135,14.633094,-16.263312,14.652342],"geometry":{"type":"MultiLineString","coordinates":[[[-16.263312,14.652342],[-16.263497,14.650332],[-16.264074,14.648128],[-16.264556,14.646595],[-16.266816,14.646582],[-16.269267,14.645612],[-16.270631,14.6435],[-16.272983,14.642531],[-16.275831,14.642132],[-16.278864,14.639915],[-16.281994,14.637506],[-16.284135,14.633955],[-16.28413,14.633094]]]}},{"type":"Feature","properties":{"FNODE_":"0","TNODE_":"0","LPOLY_":"0","RPOLY_":"0","LONGUEUR":0.0,"ROUTESA3_":"0","ROUTESA3_I":"0","CODE":7.0,"FONCTION":"Autres pistes"},"bbox":[-16.273909,14.632576,-16.233814,14.649151],"geometry":{"type":"MultiLineString","coordinates":[[[-16.273909,14.632576],[-16.271355,14.632686],[-16.269585,14.6326],[-16.266054,14.633576],[-16.264494,14.635689],[-16.262048,14.63752],[-16.260679,14.638675],[-16.255768,14.638989],[-16.251353,14.640161],[-16.249396,14.641606],[-16.242742,14.646521],[-16.240384,14.646725],[-16.238716,14.647116],[-16.233814,14.649151]]]}},{"type":"Feature","properties":{"FNODE_":"0","TNODE_":"0","LPOLY_":"0","RPOLY_":"0","LONGUEUR":0.0,"ROUTESA3_":"0","ROUTESA3_I":"0","CODE":7.0,"FONCTION":"Autres pistes"},"bbox":[-16.317041,14.658654,-16.228218,14.671778],"geometry":{"type":"MultiLineString","coordinates":[[[-16.228218,14.661661],[-16.235965,14.658654],[-16.238033,14.659504],[-16.241871,14.660345],[-16.245994,14.659749],[-16.249434,14.659826],[-16.255936,14.662565],[-16.263817,14.665967],[-16.265493,14.66701],[-16.271496,14.668412],[-16.279458,14.668751],[-16.289386,14.669174],[-16.301177,14.668917],[-16.315245,14.671517],[-16.317041,14.671778]]]}},{"type":"Feature","properties":{"FNODE_":"0","TNODE_":"0","LPOLY_":"0","RPOLY_":"0","LONGUEUR":0.0,"ROUTESA3_":"0","ROUTESA3_I":"0","CODE":7.0,"FONCTION":"Autres pistes"},"bbox":[-16.354589,14.632137,-16.349556,14.6332],"geometry":{"type":"MultiLineString","coordinates":[[[-16.354589,14.6332],[-16.354063,14.633045],[-16.350337,14.632191],[-16.349556,14.632137]]]}},{"type":"Feature","properties":{"FNODE_":"0","TNODE_":"0","LPOLY_":"0","RPOLY_":"0","LONGUEUR":0.0,"ROUTESA3_":"0","ROUTESA3_I":"0","CODE":7.0,"FONCTION":"Autres pistes"},"bbox":[-16.34883,14.628237,-16.284938,14.632331],"geometry":{"type":"MultiLineString","coordinates":[[[-16.34883,14.631777],[-16.341235,14.631341],[-16.335313,14.630415],[-16.320912,14.629537],[-16.313115,14.628237],[-16.305622,14.628471],[-16.296454,14.628715],[-16.29005,14.62971],[-16.284938,14.632331]]]}},{"type":"Feature","properties":{"FNODE_":"0","TNODE_":"0","LPOLY_":"0","RPOLY_":"0","LONGUEUR":0.0,"ROUTESA3_":"0","ROUTESA3_I":"0","CODE":7.0,"FONCTION":"Autres pistes"},"bbox":[-16.29273,14.57777,-16.291457,14.579564],"geometry":{"type":"MultiLineString","coordinates":[[[-16.291457,14.57777],[-16.292285,14.579065],[-16.29273,14.579564]]]}},{"type":"Feature","properties":{"FNODE_":"0","TNODE_":"0","LPOLY_":"0","RPOLY_":"0","LONGUEUR":0.0,"ROUTESA3_":"0","ROUTESA3_I":"0","CODE":7.0,"FONCTION":"Autres pistes"},"bbox":[-16.301998,14.584209,-16.296293,14.602043],"geometry":{"type":"MultiLineString","coordinates":[[[-16.296293,14.584209],[-16.297631,14.586138],[-16.299556,14.587778],[-16.300759,14.591933],[-16.300398,14.593155],[-16.300715,14.596884],[-16.301317,14.599033],[-16.301998,14.602043]]]}},{"type":"Feature","properties":{"FNODE_":"0","TNODE_":"0","LPOLY_":"0","RPOLY_":"0","LONGUEUR":0.0,"ROUTESA3_":"0","ROUTESA3_I":"0","CODE":7.0,"FONCTION":"Autres pistes"},"bbox":[-16.302344,14.603262,-16.302078,14.610866],"geometry":{"type":"MultiLineString","coordinates":[[[-16.302078,14.603262],[-16.302343,14.610723],[-16.302344,14.610866]]]}},{"type":"Feature","properties":{"FNODE_":"0","TNODE_":"0","LPOLY_":"0","RPOLY_":"0","LONGUEUR":0.0,"ROUTESA3_":"0","ROUTESA3_I":"0","CODE":7.0,"FONCTION":"Autres pistes"},"bbox":[-16.30235,14.611871,-16.283152,14.630346],"geometry":{"type":"MultiLineString","coordinates":[[[-16.30235,14.611871],[-16.297871,14.614551],[-16.292651,14.616517],[-16.288474,14.620415],[-16.284744,14.625243],[-16.283152,14.630346]]]}},{"type":"Feature","properties":{"FNODE_":"0","TNODE_":"0","LPOLY_":"0","RPOLY_":"0","LONGUEUR":0.0,"ROUTESA3_":"0","ROUTESA3_I":"0","CODE":7.0,"FONCTION":"Autres pistes"},"bbox":[-16.282327,14.606458,-16.28112,14.6305],"geometry":{"type":"MultiLineString","coordinates":[[[-16.281237,14.6305],[-16.28112,14.62311],[-16.282327,14.615139],[-16.282129,14.606458],[-16.281983,14.606602]]]}},{"type":"Feature","properties":{"FNODE_":"0","TNODE_":"0","LPOLY_":"0","RPOLY_":"0","LONGUEUR":0.0,"ROUTESA3_":"0","ROUTESA3_I":"0","CODE":7.0,"FONCTION":"Autres pistes"},"bbox":[-16.281533,14.586797,-16.269122,14.605313],"geometry":{"type":"MultiLineString","coordinates":[[[-16.281533,14.605313],[-16.277057,14.595795],[-16.269122,14.586797]]]}},{"type":"Feature","properties":{"FNODE_":"0","TNODE_":"0","LPOLY_":"0","RPOLY_":"0","LONGUEUR":0.0,"ROUTESA3_":"0","ROUTESA3_I":"0","CODE":7.0,"FONCTION":"Autres pistes"},"bbox":[-16.267567,14.577042,-16.263012,14.585371],"geometry":{"type":"MultiLineString","coordinates":[[[-16.267567,14.585371],[-16.263012,14.577042]]]}},{"type":"Feature","properties":{"FNODE_":"0","TNODE_":"0","LPOLY_":"0","RPOLY_":"0","LONGUEUR":0.0,"ROUTESA3_":"0","ROUTESA3_I":"0","CODE":7.0,"FONCTION":"Autres pistes"},"bbox":[-16.344743,14.587874,-16.341776,14.593339],"geometry":{"type":"MultiLineString","coordinates":[[[-16.344328,14.587874],[-16.344158,14.589199],[-16.344743,14.590877],[-16.342974,14.592517],[-16.341776,14.593339]]]}},{"type":"Feature","properties":{"FNODE_":"0","TNODE_":"0","LPOLY_":"0","RPOLY_":"0","LONGUEUR":0.0,"ROUTESA3_":"0","ROUTESA3_I":"0","CODE":7.0,"FONCTION":"Autres pistes"},"bbox":[-16.34016,14.593541,-16.284972,14.631019],"geometry":{"type":"MultiLineString","coordinates":[[[-16.34016,14.593541],[-16.335172,14.597229],[-16.331876,14.600477],[-16.331511,14.600981],[-16.329533,14.602858],[-16.323874,14.605329],[-16.319986,14.608078],[-16.314783,14.612915],[-16.30783,14.620918],[-16.30496,14.621508],[-16.299511,14.622184],[-16.295099,14.623788],[-16.290034,14.627188],[-16.284972,14.631019]]]}},{"type":"Feature","properties":{"FNODE_":"0","TNODE_":"0","LPOLY_":"0","RPOLY_":"0","LONGUEUR":0.0,"ROUTESA3_":"0","ROUTESA3_I":"0","CODE":7.0,"FONCTION":"Autres pistes"},"bbox":[-16.215137,14.624505,-16.176549,14.646551],"geometry":{"type":"MultiLineString","coordinates":[[[-16.176549,14.624649],[-16.178787,14.624638],[-16.184433,14.624505],[-16.192557,14.629133],[-16.19941,14.635323],[-16.2069,14.640887],[-16.215137,14.646551]]]}},{"type":"Feature","properties":{"FNODE_":"0","TNODE_":"0","LPOLY_":"0","RPOLY_":"0","LONGUEUR":0.0,"ROUTESA3_":"0","ROUTESA3_I":"0","CODE":7.0,"FONCTION":"Autres pistes"},"bbox":[-16.225989,14.612886,-16.082624,14.643278],"geometry":{"type":"MultiLineString","coordinates":[[[-16.225989,14.643278],[-16.219971,14.634179],[-16.215029,14.626942],[-16.21072,14.618456],[-16.208685,14.616495],[-16.203029,14.614864],[-16.195465,14.615214],[-16.188327,14.615458],[-16.176811,14.613857],[-16.167963,14.613175],[-16.163487,14.612886],[-16.15689,14.614683],[-16.148471,14.614621],[-16.136635,14.612915],[-16.124178,14.614843],[-16.11118,14.615216],[-16.095193,14.614669],[-16.082624,14.615454]]]}},{"type":"Feature","properties":{"FNODE_":"0","TNODE_":"0","LPOLY_":"0","RPOLY_":"0","LONGUEUR":0.0,"ROUTESA3_":"0","ROUTESA3_I":"0","CODE":7.0,"FONCTION":"Autres pistes"},"bbox":[-16.080701,14.611664,-16.05474,14.614633],"geometry":{"type":"MultiLineString","coordinates":[[[-16.080701,14.614633],[-16.073551,14.612384],[-16.05474,14.611664]]]}},{"type":"Feature","properties":{"FNODE_":"0","TNODE_":"0","LPOLY_":"0","RPOLY_":"0","LONGUEUR":0.0,"ROUTESA3_":"0","ROUTESA3_I":"0","CODE":7.0,"FONCTION":"Autres pistes"},"bbox":[-16.227208,14.572989,-16.202179,14.640306],"geometry":{"type":"MultiLineString","coordinates":[[[-16.227208,14.640306],[-16.2269,14.638012],[-16.224116,14.631999],[-16.223613,14.629897],[-16.223595,14.626644],[-16.223476,14.622914],[-16.222483,14.621101],[-16.219222,14.617674],[-16.216649,14.614339],[-16.21575,14.61157],[-16.213948,14.605552],[-16.211652,14.598867],[-16.211139,14.594851],[-16.209642,14.590554],[-16.207442,14.583581],[-16.20644,14.579855],[-16.203772,14.576999],[-16.202179,14.572989]]]}},{"type":"Feature","properties":{"FNODE_":"0","TNODE_":"0","LPOLY_":"0","RPOLY_":"0","LONGUEUR":0.0,"ROUTESA3_":"0","ROUTESA3_I":"0","CODE":7.0,"FONCTION":"Autres pistes"},"bbox":[-16.215255,14.573871,-16.179295,14.610902],"geometry":{"type":"MultiLineString","coordinates":[[[-16.215255,14.610902],[-16.213664,14.607371],[-16.211482,14.603747],[-16.207419,14.597262],[-16.201283,14.58897],[-16.19674,14.584593],[-16.192499,14.581362],[-16.185305,14.577189],[-16.179295,14.573871]]]}},{"type":"Feature","properties":{"FNODE_":"0","TNODE_":"0","LPOLY_":"0","RPOLY_":"0","LONGUEUR":0.0,"ROUTESA3_":"0","ROUTESA3_I":"0","CODE":7.0,"FONCTION":"Autres pistes"},"bbox":[-16.178508,14.56926,-16.163848,14.573802],"geometry":{"type":"MultiLineString","coordinates":[[[-16.163848,14.56926],[-16.1673,14.571826],[-16.16868,14.572776],[-16.17399,14.573802],[-16.178508,14.573683]]]}},{"type":"Feature","properties":{"FNODE_":"0","TNODE_":"0","LPOLY_":"0","RPOLY_":"0","LONGUEUR":0.0,"ROUTESA3_":"0","ROUTESA3_I":"0","CODE":7.0,"FONCTION":"Autres pistes"},"bbox":[-16.201747,14.567319,-16.201566,14.570983],"geometry":{"type":"MultiLineString","coordinates":[[[-16.201578,14.570983],[-16.201566,14.568687],[-16.201747,14.567319]]]}},{"type":"Feature","properties":{"FNODE_":"0","TNODE_":"0","LPOLY_":"0","RPOLY_":"0","LONGUEUR":0.0,"ROUTESA3_":"0","ROUTESA3_I":"0","CODE":7.0,"FONCTION":"Autres pistes"},"bbox":[-16.191347,14.593301,-16.147247,14.609727],"geometry":{"type":"MultiLineString","coordinates":[[[-16.147247,14.593301],[-16.151672,14.594045],[-16.158258,14.594873],[-16.168105,14.599129],[-16.177866,14.605682],[-16.18259,14.607284],[-16.191347,14.609727]]]}},{"type":"Feature","properties":{"FNODE_":"0","TNODE_":"0","LPOLY_":"0","RPOLY_":"0","LONGUEUR":0.0,"ROUTESA3_":"0","ROUTESA3_I":"0","CODE":7.0,"FONCTION":"Autres pistes"},"bbox":[-16.162694,14.559213,-16.147455,14.591636],"geometry":{"type":"MultiLineString","coordinates":[[[-16.162694,14.559213],[-16.161712,14.562858],[-16.160704,14.569417],[-16.160434,14.572188],[-16.154691,14.579508],[-16.1513,14.583679],[-16.149993,14.587378],[-16.147455,14.591636]]]}}]}